name,address,phone,email,website,opening_hours,cuisine,outdoor_seating,takeaway,delivery,wheelchair,payment_methods,amenity,shop
Yoshinoya,Yoshinoya,,,,,beef_bowl,,yes,,,,fast_food,
Jack in the Box,"2521 Pasadena Avenue, Los Angeles, CA, 90031",+1 323-223-6094,,https://locations.jackinthebox.com/us/ca/los-angeles/2521-pasadena-ave,Mo-Su 06:00-22:00,burger,,yes,,,,fast_food,
Carl's Jr.,"229 West 7th Street, Los Angeles, CA, 90014",+1 213-624-1315,,https://locations.carlsjr.com/ca/los-angeles/229-w-7th-street,,burger,,yes,,,,fast_food,
Subway,"630 West Sixth Street, Los Angeles, CA, 90017",+1 213-623-8376,,https://restaurants.subway.com/united-states/ca/los-angeles/630-west-sixth-st,Mo-Th 06:30-24:00; Fr 06:00-01:00; Sa 08:00-01:00; Su 08:00-24:00,sandwich,,yes,,,,fast_food,
PI^LA,US,,,,,pizza,,,,,,fast_food,
Carl's Jr.,"254 South Broadway, Los Angeles, CA, 90012",+1 213-625-1357,,https://locations.carlsjr.com/ca/los-angeles/254-s-broadway,,burger,,yes,,,,fast_food,
Sbarro,Sbarro,,,,,pizza,,yes,,,,fast_food,
El Pollo Loco,El Pollo Loco,213-626-7975,,https://www.elpolloloco.com/,10:00-23:00,mexican,,yes,,,,fast_food,
McDonald's,"1417 Glendale Boulevard, Los Angeles, CA, 90026",+1 213-483-8661,,https://www.mcdonalds.com/us/en-us/location/1922.html,05:00-22:00,burger,no,yes,,yes,,fast_food,
Little Caesars,Little Caesars,,,https://littlecaesars.com/en-us/store/9247/,,pizza,,yes,,,,fast_food,
Jack in the Box,"516 North Beaudry Avenue, Los Angeles, CA, 90012",+1 213-975-9455,,https://locations.jackinthebox.com/us/ca/los-angeles/516-n-beaudry-ave,,burger,,yes,,,,fast_food,
King Taco,King Taco,,,,Su-Sa,mexican,,yes,,,,fast_food,
McDonald's,"3105 North Broadway, Los Angeles, CA, 90031-2703",+1 323-227-4056,,https://www.mcdonalds.com/us/en-us/location/11157.html,05:00-21:00,burger,,yes,,,,fast_food,
El Pollo Loco,"2201 North Broadway, Los Angeles, CA, 90031",+1-323-227-9991,,https://restaurants.elpolloloco.com/ca/los-angeles/2201-n-broadway,Mo-Su 10:00-21:00,mexican,,yes,,,,fast_food,
Chipotle,"601 W. 7th Street, Los Angeles, CA, 90017",+1 213-283-2058,,https://locations.chipotle.com/ca/los-angeles/601-w-7th-st,Mo-Th 10:30-23:00; Fr-Su 10:30-22:00,mexican,,yes,,,,fast_food,
Pizza Next Door,"806 (Unit B) West 8th Street, 90017",(213) 622-6595,,http://www.pizzanextdoor.com/,"Mo-Fr 09:00-21:00, Sa 11:00-21:00",pizza,,,,yes,,fast_food,
SanSai Japanese Grill,"806 West 8th Street, 90017",(213) 627-2053,,https://www.sansaigrill.com/,,japanese,,,,yes,,fast_food,
Simply Salad,"645 (Suite #106) W. 9th St., 90015",+1 213-488-9191,,https://simplysalad.com/,Mo-Fr 10:00-21:00; Sa-Su 11:00-17:00,salad,,,,,,fast_food,
Quiznos,"645 W. 9th St, 90017",(213) 622-6560,,https://www.quiznos.com/,,sandwich,,yes,,,,fast_food,
Sultan Chicken Restaurant,311 6th Street,+1 213-236-0604,,http://sultanchicken.com/,,chicken,,,,,,fast_food,
Kiss Pizza & Deli,Kiss Pizza & Deli,+1 213-629-5033,info@kisspizzadeli.com,https://www.kisspizzadeli.com/,Mo-Su 11:00-21:00,pizza,,,,,,fast_food,
George's Greek Grill,"445 Figueroa Street, Los Angeles",,,,,greek,yes,yes,no,,,fast_food,
Quiznos,"445 S. Figueroa, Los Angeles",,,,,sandwich,yes,yes,,,,fast_food,
Original Tommy's Hamburgers,Original Tommy's Hamburgers,,,,,,,,,,,fast_food,
KFC,"320 North Soto, Los Angeles, CA, 90033",,,https://locations.kfc.com/ca/los-angeles/320-north-soto/,Mo-Fr 08:00-23:00; Sa-Su 09:00-23:00,chicken,,yes,,,,fast_food,
Mendocino Farms,Mendocino Farms,,,,,sandwich,,yes,,,,fast_food,
Subway,"255 South Grand Avenue, Los Angeles, CA, 90012",+1 213-621-1602,,https://restaurants.subway.com/united-states/ca/los-angeles/255-south-grand-avenue,Mo-Fr 07:00-24:00; Sa-Su 08:00-24:00,sandwich,yes,yes,,yes,,fast_food,
Chipotle,"255 South Grand Avenue, Los Angeles, CA, 90012",+1 213-335-5025,,https://locations.chipotle.com/ca/los-angeles/255-s-grand-ave,,mexican,yes,yes,,yes,,fast_food,
KFC,"2809 Figueroa Street, Los Angeles, CA, 90007",,,https://locations.kfc.com/ca/los-angeles/2809-south-figueroa,,chicken,,yes,,,,fast_food,
Burrito King,Burrito King,,,,,mexican,,,,,,fast_food,
K&K Donut,K&K Donut,,,,,,,,,,,fast_food,
Cielito Lindo,23 Olvera Street,,,,,mexican,,,,,,fast_food,
McDonald's,"405 North Alvarado Street, Los Angeles, CA, 90026",+1 213-413-3724,,https://www.mcdonalds.com/us/en-us/location/12036.html,07:00-22:00,burger,,yes,,,,fast_food,
Subway,"712 South Los Angeles Street, Los Angeles, 90014",,,,,sandwich,,yes,,,,fast_food,
Enerjuicer,"718 South Los Angeles Street, Los Angeles, 90014",,,,,,,,,,,fast_food,
Domino's,"740 S.Olive Street, Los Angeles, CA, 90013",+1 213-623-2424,,https://pizza.dominos.com/california/los-angeles/740-solive-street,10:00-01:00,pizza,,yes,,,,fast_food,
Domino's,"3502 West Sunset Boulevard, Los Angeles, CA, 90026-2106",+1 323-667-2323,,https://pizza.dominos.com/california/los-angeles/3502-sunset-blvd,Mo-Th 10:30-24:00; Fr-Sa 10:30-01:00; Su 10:30-24:00,pizza,,yes,,,,fast_food,
Five Guys,"530 West 27th Street, Los Angeles, CA, 90007",+1 213-749-7710,,https://restaurants.fiveguys.com/530-w-27th-st,11:00-21:30,burger,,yes,,,,fast_food,
Juanitas,Juanitas,,,,,mexican,,,,,,fast_food,
El Rancho Grande,70 Olvera Street,,,,,mexican,,,,,,fast_food,
La Noche Buena,La Noche Buena,,,,,mexican,,,,,,fast_food,
Sushi Teri,Sushi Teri,,,,"Su-Th 11:00-21:00; Fr,Sa 11:00-22:00",sushi;japanese,,,,,,fast_food,
Chipotle,"3183 Wilshire Boulevard, Los Angeles, CA, 90010",+1 213-884-4094,,https://locations.chipotle.com/ca/los-angeles/3183-wilshire-blvd,,mexican,,yes,,,,fast_food,
Mariscos Jalisco Food Truck,"3040 East Olympic Boulevard, 90023",,,,,mexican,,only,,,,fast_food,
Maple Block Meat Co.,Maple Block Meat Co.,,,,,barbecue,,,,,,fast_food,
Poké Bar,Poké Bar,,,,,poke,,,,,,fast_food,
Asiago,Asiago,,,,,grilled_cheese,,,,,,fast_food,
Georges Greek Grill,Georges Greek Grill,,,,,greek,,,,,,fast_food,
Earl of Sandwich,Earl of Sandwich,,,,,,,,,,,fast_food,
Mixt,Mixt,,,,,,,,,,,fast_food,
Pressed Juicery,Pressed Juicery,,,,,juice,,yes,,,,fast_food,
Dans Deli,Dans Deli,,,,,,,,,,,fast_food,
Salata,Salata,,,,,salad,,,,,,fast_food,
Safron,Safron,,,,,indian,,,,,,fast_food,
Firenza Pizza,Firenza Pizza,,,,,pizza,,,,,,fast_food,
Sweetgreen,Sweetgreen,,,,,salad,,yes,,,,fast_food,
The Flame Broiler,The Flame Broiler,,,,,asian,,yes,,,,fast_food,
Z's Crazy Good,Z's Crazy Good,,,,,breakfast,,,,,,fast_food,
Mixt,"3100 Sunset Boulevard, Los Angeles, CA, 90026",+1 415-296-8009,,https://www.mixt.com/locations/silver-lake/,11:00-21:30,salad;Bowl,,,,,,fast_food,
Chipotle,"1122 West 6th Street, Los Angeles, CA, 90017",+1 213-250-9277,,https://locations.chipotle.com/ca/los-angeles/1122-w-6th-st,,mexican,,yes,,,,fast_food,
Ching Hai,Ching Hai,,,,,,,,,,,fast_food,
L.A. Donuts,L.A. Donuts,,,,,,,,,,,fast_food,
Shake Shack,"400 West 8th Street, Los Angeles, CA, 90014",,,https://www.shakeshack.com/location/downtown-la-ca/,11:00-21:00,burger,no,yes,,,,fast_food,
Wild Living Foods,"760 South Main Street, Los Angeles, CA, 90014",,,https://www.wildlivingfoods.com/,09:00-23:00,burger;sandwich;sushi,,,,,,fast_food,
Eggslut,"317 South Broadway, Los Angeles, CA, 90013",,,,Mo-Su 08:00-14:00,burger,,yes,,,,fast_food,
Jack in the Box,"459 South Vermont Avenue, Los Angeles, CA, 90020",+1-213-389-1023,,https://locations.jackinthebox.com/us/ca/los-angeles/459-s-vermont-ave,24/7,burger,no,yes,yes,,,fast_food,
Lucy's bakery,Lucy's bakery,,,,,mexican,,,,,,fast_food,
Jack in the Box,"1615 South Broadway, Los Angeles, CA, 90015",+1 213-748-7177,,https://locations.jackinthebox.com/us/ca/los-angeles/1615-s-broadway,,burger,,yes,,,,fast_food,
Subway,"701 Cesar Chavez Avenue, Los Angeles, CA, 90012",+1 213-626-4411,,https://restaurants.subway.com/united-states/ca/los-angeles/701-cesar-chavez-avenue,09:00-22:00,sandwich,,yes,,,,fast_food,
Papa John's,"701 West Cesar East Chavez Avenue, Los Angeles, CA, 90012",+1 213-617-2727,,https://locations.papajohns.com/united-states/ca/90012/los-angeles/701-w-cesar-e-chavez-ave,10:00-02:00,pizza,,yes,,,,fast_food,
Smashburger,Smashburger,,,,,burger,,yes,,,,fast_food,
Chick-fil-A,"660 South Figueroa Street, Los Angeles, CA, 90017",+1 213-624-2001,,https://www.chick-fil-a.com/locations/ca/7th-fig-in-line,Mo-Sa 06:00-22:00; Su off,chicken,,yes,yes,,,fast_food,
Tender Greens,"505 West 6th Street, Los Angeles, CA, 90014",,,,,salad,,yes,,,,fast_food,
Tacos Ariza,Tacos Ariza,,,,,mexican,,,,,,fast_food,
Pampanga Grille,Pampanga Grille,,,,,,,,,,,fast_food,
Beacon,Beacon,,,,,breakfast;sandwich,,,,,,fast_food,
Berlin Currywurst,"317 South Broadway, Los Angeles, CA, 90013",,,,,german;hot_dog,,,,,,fast_food,
King Taco,2020 w pico blvd,,,,,mexican,,yes,,,,fast_food,
Perfect Donuts,Perfect Donuts,,,,,donut,,,,,,fast_food,
Dunkin',"754 South Olive Street, Los Angeles, CA, 90014",+1 213-532-5555,,https://locations.dunkindonuts.com/en/ca/los-angeles/754-s-olive-st/354452,Mo-Sa 05:00-19:00; Su 05:00-18:00,donut;coffee_shop,,yes,,,,fast_food,
Qwench,700 South Flower Street,,,,,juice,,,,,,fast_food,
Shake Shack,Shake Shack,,,,,burger,,yes,,,,fast_food,
Sticky Rice,"317 South Broadway, Los Angeles, CA, 90013",,,,,thai,,,,,,fast_food,
Sarita's Pupuseria,"317 South Broadway, Los Angeles, CA, 90013",,,,,salvadoran,,,,,,fast_food,
Bento Ya,"317 South Broadway, Los Angeles, CA, 90013",,,,,japanese,,,,,,fast_food,
Donut Friend,Donut Friend,,,,,donut,,,,,,fast_food,
Wingstop,"2619 North Figueroa Street, Los Angeles, CA, 90065",+1 213-799-9464,,,,wings,,yes,,,,fast_food,
Panda Express,"2619 North Figueroa Street, Los Angeles, CA, 90065",+1 323-870-8191,,https://www.pandaexpress.com/locations/ca/los-angeles/3304,Mo-Fr 09:30-22:30; Sa 09:30-22:00; Su 09:30-22:30,chinese,,yes,,,,fast_food,
Yum Yum Donuts,Yum Yum Donuts,,,,,donut,,yes,,,,fast_food,
Taco Bell Cantina,"810 West 7th Street, Los Angeles, CA, 90017",,,,,tex-mex,,yes,,,,fast_food,
Subway,"1001 S. Alvarado Street, Los Angeles, CA, 90006",+1 213-388-3040,,https://restaurants.subway.com/united-states/ca/los-angeles/1013-s-alvarado-st,,sandwich,,yes,,,,fast_food,
For the Win,"317 South Broadway, Los Angeles, CA, 90013",,,,,burger,,,,yes,"Credit Cards, Debit Cards",fast_food,
Marugame Udon,Marugame Udon,,,,,noodle,,yes,,,,fast_food,
Jollibee,Jollibee,,,,,burger,,yes,,,,fast_food,
McDonald's,"4011 South Central, Los Angeles, CA, 90059",+1 323-233-3548,,https://www.mcdonalds.com/us/en-us/location/13788.html,07:00-22:00,burger,,yes,,,,fast_food,
Kura Sushi,Kura Sushi,,,,"Su-Th 11:00-22:30; Fr,Sa 11:00-23:00",sushi,,yes,,,,fast_food,
Subway,"2800 East First Street, Boyle Heights, CA, 90033",+1 323-780-4740,,https://restaurants.subway.com/united-states/ca/boyle-heights/2800-e-first-st,08:30-21:30,sandwich,,yes,,,,fast_food,
Subway,"704 West 1st Street, Los Angeles, CA, 90012",+1 213-625-2224,,https://restaurants.subway.com/united-states/ca/los-angeles/704-west-1st-street,Mo-Fr 08:00-21:00; Sa-Su 09:00-21:00,sandwich,,yes,,,,fast_food,
Vitacane,Vitacane,,,,Mo-Su 11:00-20:00,juice,,,,,,fast_food,
KFC,"2801 North Broadway, Los Angeles, CA, 90031",(323) 221-0478,,https://locations.kfc.com/ca/los-angeles/2801-north-broadway,Mo-Su 10:00-22:00,chicken,,yes,,,,fast_food,
Subway,"3024 North Broadway, Los Angeles, CA, 90031",+1 323-222-1890,,https://restaurants.subway.com/united-states/ca/los-angeles/3024-n-broadway,07:00-23:00,sandwich,,yes,,,,fast_food,
WaBa Grill,WaBa Grill,,,,,asian,,yes,,,,fast_food,
Carl's Jr.,"3215 North Broadway, Los Angeles, CA, 90031",+1 323-441-8878,,https://locations.carlsjr.com/ca/los-angeles/3215-n-broadway,,burger,,yes,,,,fast_food,
Jack in the Box,"1135 North Mission Road, Los Angeles, CA, 90033",+1 313-223-6346,,https://locations.jackinthebox.com/us/ca/los-angeles/1135-n-mission-rd,,burger,,yes,,,,fast_food,
Zankou Chicken,Zankou Chicken,,,,,chicken;armenian,,,,,,fast_food,
Saint Vincent Deli,Saint Vincent Deli,,,,,sandwich,,,,,,fast_food,
NYC Caribbean,NYC Caribbean,,,,,caribbean,,,,,,fast_food,
Ana Maria,"317 South Broadway, Los Angeles, CA, 90013",,,,,mexican,,,,,,fast_food,
China Cafe,"317 South Broadway, Los Angeles, CA, 90013",,,,,chinese,,,,,,fast_food,
Donut Man,"317 South Broadway, Los Angeles, CA, 90013",,,,,donut,,,,,,fast_food,
Jose Chiquito,"317 South Broadway, Los Angeles, CA, 90013",,,,,breakfast;burger;sandwich,,,,,,fast_food,
The Juice,"317 South Broadway, Los Angeles, CA, 90013",,,,,juice,,,,,,fast_food,
Knead and Co.,"317 South Broadway, Los Angeles, CA, 90013",,,,,pasta,,,,,,fast_food,
La Tostaderia,"317 South Broadway, Los Angeles, CA, 90013",,,,,mexican,,,,,,fast_food,
Lucky Bird,"317 South Broadway, Los Angeles, CA, 90013",,,,,chicken,,,,,,fast_food,
Moon Rabbit,"317 South Broadway, Los Angeles, CA, 90013",,,,,asian;sandwich,,,,,,fast_food,
Olio Wood Fired Pizzeria,"317 South Broadway, Los Angeles, CA, 90013",,,,,pizza,,,,,,fast_food,
Oyster Gourmet,"317 South Broadway, Los Angeles, CA, 90013",,,,,seafood,,,,,,fast_food,
PBJ LA,"317 South Broadway, Los Angeles, CA, 90013",,,,,sandwich,,,,,,fast_food,
Ramen Hood,"317 South Broadway, Los Angeles, CA, 90013",,,,,noodle;asian,,,,,,fast_food,
Sari Sari Store,"317 South Broadway, Los Angeles, CA, 90013",,,,,filipino,,,,,,fast_food,
Shiku,"317 South Broadway, Los Angeles, CA, 90013",,,,,korean,,,,,,fast_food,
Tacos Tumbras a Tomas,"317 South Broadway, Los Angeles, CA, 90013",,,,,mexican,,,,,,fast_food,
Villa Moreliana,"317 South Broadway, Los Angeles, CA, 90013",,,,,mexican,,,,,,fast_food,
Wexler's Deli,"317 South Broadway, Los Angeles, CA, 90013",,,,,sandwich;jewish,,,,,,fast_food,
Subway,"425 South Los Angeles Street, Los Angeles, CA, 90013",+1 213-626-0560,,https://restaurants.subway.com/united-states/ca/los-angeles/425-south-los-angeles-street,07:00-20:00,sandwich,,yes,,,,fast_food,
McDonald's,"2810 South Figueroa Street, Los Angeles, CA, 90007-3257",+1 213-749-1105,,https://www.mcdonalds.com/us/en-us/location/3358.html,07:00-22:00,burger,,yes,no,,,fast_food,
Triple Beam Pizza,"1806 Sunset Boulevard, 90026",+1 213-281-9753,,https://www.triplebeampizza.com/location/echo-park/,Su-Th 11:00-21:00; Fr-Sa 11:00-23:00,pizza;salad,yes,yes,yes,,,fast_food,
Katsu Sando,Katsu Sando,,,,,sandwich;japanese,,,,,,fast_food,
Champion's Curry,"136 South Central Avenue, Los Angeles, CA, 90012",213-265-7187,,https://www.japanesecurry.com/,,japanese,,,,,,fast_food,
Dave's Hot Chicken,"131 South Central Avenue, Los Angeles, CA, 90012",323-507-3077,,https://www.daveshotchicken.com/location/los-angeles-ca-e-2nd-st-little-tokyo/,Su-Th 10:00-24:00; Fr-Sa 10:00-01:00,chicken,,yes,,,,fast_food,
bb.q Chicken,bb.q Chicken,,,,,chicken,,,,yes,"Cash, Credit Cards, Debit Cards",fast_food,
Kreation,Kreation,,,,,juice,,,,,,fast_food,
Two Hands,Two Hands,,,,Mo-Su 11:00-21:00,corn_dog,,yes,,,,fast_food,
Mr. Churro,Mr. Churro,,,,,dessert;mexican,,,,,,fast_food,
Angelino's Bakery And Deli,1522 Sunset Boulevard,+1 213-482-5348,,http://angelinosbakerydeli.mobile-webview1.com/,05:30-21:00,donut;sandwich;hot_dog;torta,,,,,,fast_food,
Gyoza Bar,1501 Sunset Boulevard,+1 213-265-7015,mailto:hello@gyozabar.com,https://www.gyozabar.com/,"Mo-Th,Su 12:00-22:00; Fr-Sa 12:00-23:00",japanese,,,,,,fast_food,
Jersey Mike's Subs,Jersey Mike's Subs,,,https://www.jerseymikes.com/20382/los-angeles-ca,,sandwich,,yes,,,,fast_food,
Playita Mariscos,"3143 West Sunset Boulevard, 90026",+1 323-928-2028,,https://www.playitamariscos.com/,"Mo-Th,Su 11:00-21:00; Fr-Sa 11:00-22:00",mexican;seafood,,,,,,fast_food,
Kreation,"3501 West Sunset Boulevard, 90026",+1 323-426-9101,,https://www.kreationjuice.com/,07:00-21:00,juice;salad;fish;soup;Dehydrated Fruit;Wraps,,,,,,fast_food,
Lemonade,Lemonade,,,,,,yes,,,,,fast_food,
Porky's Carnitas,"1720 South Soto Street, Los Angeles, CA, 90023",+1-213-547-2749,,,,mexican,,,,,,fast_food,
McDonald's,"1311 West Washington Boulevard, Los Angeles, CA, 90006, US",+1 213-749-7221,,https://www.mcdonalds.com/us/en-us/location/24384.html,Mo-We 07:00-19:00; Th 07:00-15:45; Fr-Su 07:00-19:00,burger,,yes,,,,fast_food,
McDonald's,"341 South Vermont Avenue, Los Angeles, CA, 90020-1806, US",+1 213-383-6934,,https://www.mcdonalds.com/us/en-us/location/1871.html,Mo-Su 05:00-24:00,burger,,yes,,,,fast_food,
Master Burger,Master Burger,,,,,burger,,,,,,fast_food,
Baja California Tacos,Baja California Tacos,,,,,mexican,,,,,,fast_food,
Stark's Hot Chicken,Stark's Hot Chicken,,,,,chicken,,,,,,fast_food,
Subway,"198 South Vermont Avenue, Los Angeles, CA, 90004",+1 213-380-1485,,https://restaurants.subway.com/united-states/ca/los-angeles/198-s-vermont-ave,Mo-Fr 06:00-02:00; Sa-Su 07:00-02:00,sandwich,,yes,,,,fast_food,
Subway,"2000 Marengo Street, Los Angeles, CA, 90033",+1 323-223-8923,,https://restaurants.subway.com/united-states/ca/los-angeles/2000-marengo-st,Mo-Fr 07:00-01:00; Sa-Su 09:00-01:00,sandwich,,yes,,,,fast_food,
Popeyes,"2000 Marengo Street, Los Angeles, CA, 90033",+1 323-223-8529,,https://www.popeyes.com/store-locator/store/restaurant_82323,08:00-24:00,chicken,,yes,yes,,,fast_food,
Olympic Donuts,Olympic Donuts,,,,,donut,,,,,,fast_food,
Sam's,Sam's,,,,,mexican,,,,,,fast_food,
Panda Express,"741 South Soto Street, Los Angeles, CA, 90023",+1 323-526-9011,,https://www.pandaexpress.com/locations/ca/los-angeles/2648,Mo-Fr 09:00-22:30; Sa-Su 09:00-22:00,chinese,,yes,,,,fast_food,
Domino's,"2324 Whittier Boulevard, Los Angeles, CA, 90023",+1 323-268-2000,,https://pizza.dominos.com/california/los-angeles/2324-whittier-blvd,10:00-01:00,pizza,,yes,,,,fast_food,
Jim's Burgers,Jim's Burgers,,,,,burger,,,,,,fast_food,
Winchell's Donut House,Winchell's Donut House,,,,,donut,,yes,,,,fast_food,
Subway,"1821 East Cesar Chavez Avenue, Los Angeles, CA, 90033",+1 323-222-6262,,https://restaurants.subway.com/united-states/ca/los-angeles/1821-e-cesar-chavez-ave,Mo-Sa 07:00-23:00; Su 09:00-21:00,sandwich,,yes,,,,fast_food,
George's,George's,,,,,burger,,,,,,fast_food,
Wingstop,"2189 Whittier Boulevard, Los Angeles, CA, 90023",+1 323-685-5465,,,,wings,,yes,,,,fast_food,
Taqueria La Estrella,Taqueria La Estrella,,,,,mexican,,,,,,fast_food,
Carnitas Michoacan,Carnitas Michoacan,,,,,mexican,,,,,,fast_food,
Church's Chicken,"2604 South Central Avenue, Los Angeles, CA, 90011",+1 323-235-9200,,https://locations.churchs.com/ca/los-angeles/2604-s-central-avenue,,,,,,,,fast_food,
Domino's,"2527 South San Pedro Street, Los Angeles, CA, 90011",+1 323-886-3900,,https://pizza.dominos.com/california/los-angeles/2527-s-san-pedro-st,Mo-Th 10:30-24:00; Fr-Sa 10:30-01:00; Su 10:30-24:00,pizza,,yes,,,,fast_food,
Panda Express,"524 East Washington Boulevard, Los Angeles, CA, 90015",+1 213-261-7118,,https://www.pandaexpress.com/locations/ca/los-angeles/2921,Mo-Sa 09:00-22:00; Su 09:00-21:30,chinese,,yes,,,,fast_food,
Dunkin',"410 East Washington Boulevard, Los Angeles, CA, 90015",+1 213-741-3965,,https://locations.dunkindonuts.com/en/ca/los-angeles/410-e-washington-blvd/358597,Mo-Th 05:00-21:00; Fr 05:00-22:00; Sa 06:00-22:00; Su 06:00-21:00,donut;coffee_shop,,yes,,,,fast_food,
Chipotle,"301 West Olympic Boulevard, Los Angeles, CA, 90015",+1 213-623-3306,,https://locations.chipotle.com/ca/los-angeles/301-w-olympic-blvd,,mexican,,yes,,,,fast_food,
Jimmy John's,"445 South Figueroa Street, Los Angeles, CA, 90071",+1 213-612-0307,,https://locations.jimmyjohns.com/ca/losangeles/sandwiches-4024.html,,sandwich,,yes,,,,fast_food,
Five Guys,"735 South Figueroa Street, Los Angeles, CA, 90017",+1 213-628-3375,,https://restaurants.fiveguys.com/735-s-figueroa-st,Mo-Fr 11:00-20:30; Sa-Su 11:00-18:30,burger,,yes,,,,fast_food,
Domino's,"1301 West 7th Street, Los Angeles, CA, 90017",+1 213-267-5455,,https://pizza.dominos.com/california/los-angeles/1301-w-7th-street,10:00-01:00,pizza,,yes,,,,fast_food,
Burger King,"1501 West 6th Street, Los Angeles, CA, 90017",+1 213-674-7762,,https://www.bk.com/store-locator/store/restaurant_64754,Mo-Sa 06:00-22:00; Su 07:00-22:00,burger,,yes,yes,,,fast_food,
Panda Express,"1603 Wilshire Boulevard, Los Angeles, CA, 90017",+1 213-484-9898,,https://www.pandaexpress.com/locations/ca/los-angeles/2466,Mo-Th 08:30-23:30; Fr-Sa 08:30-24:00; Su 08:30-23:30,chinese,,yes,,,,fast_food,
Jack in the Box,"1900 West 6th Street, Los Angeles, CA, 90057",+1 213-483-1768,,https://locations.jackinthebox.com/us/ca/los-angeles/1900-w-6th-st,,burger,,yes,,,,fast_food,
Burger King,"1830 West 8th Street, Los Angeles, CA, 90057-4918",+1 213-365-2476,,https://www.bk.com/store-locator/store/restaurant_6087,06:30-23:00,burger,,yes,yes,,,fast_food,
Carl's Jr.,"2110 West 7th Street, Los Angeles, CA, 90057",+1 213-388-8582,,https://locations.carlsjr.com/ca/los-angeles/2110-w-7th-st,,burger,,yes,,,,fast_food,
Wingstop,"2030 West 8th Street, Los Angeles, CA, 90057",+1 213-927-9464,,,,wings,,yes,,,,fast_food,
Jack in the Box,"2120 West Pico Boulevard, Los Angeles, CA, 90006",+1 213-252-8209,,https://locations.jackinthebox.com/us/ca/los-angeles/2120-w-pico-blvd,,burger,,yes,,,,fast_food,
Domino's,"1740 South Hoover Street, Los Angeles, CA, 90006",+1 213-748-7774,,https://pizza.dominos.com/california/los-angeles/1740-s-hoover-st,Mo-Th 10:00-24:00; Fr-Sa 10:00-01:00; Su 10:00-24:00,pizza,,yes,,,,fast_food,
Burger King,"1845 South Vermont Avenue, Los Angeles, CA, 90006-4525",+1 323-732-1678,,https://www.bk.com/store-locator/store/restaurant_3761,Mo-Sa 06:30-20:00; Su 07:00-20:00,burger,,yes,yes,,,fast_food,
Chipotle,"2595 South Hoover Street, Los Angeles, CA, 90007",+1 213-863-4566,,https://locations.chipotle.com/ca/los-angeles/2595-s-hoover-st,,mexican,,yes,,,,fast_food,
Jamba,"2801 South Figueroa Street, Los Angeles, CA, 90007",+1 323-709-2500,,https://locations.jamba.com/ca/los-angeles/2801-s-figueroa-st-1563,07:00-21:00,juice,,yes,,,,fast_food,
Domino's,"2803 Figueroa Street, Los Angeles, CA, 90007",+1 213-746-9999,,https://pizza.dominos.com/california/los-angeles/2803-figueroa-street,Mo-Th 10:00-01:00; Fr-Sa 10:00-03:00; Su 10:00-01:00,pizza,,yes,,,,fast_food,
Carl's Jr.,"2912 South Figueroa, Los Angeles, CA, 90007",+1 213-747-5801,,https://locations.carlsjr.com/ca/los-angeles/2912-s-figueroa,,burger,,yes,,,,fast_food,
Dunkin',"3335 South Figueroa Street, Los Angeles, CA, 90007",+1 213-946-2955,,https://locations.dunkindonuts.com/en/ca/los-angeles/3335-south-figueroa-street/363800,Mo-Su 06:00-16:00,donut;coffee_shop,,yes,,,,fast_food,
KFC,"126 Vermont Avenue, Los Angeles, CA, 90004",,,https://locations.kfc.com/ca/los-angeles/126-vermont-avenue/,10:00-22:00,chicken,,yes,,,,fast_food,
Carl's Jr.,"3005 West 6th Street, Los Angeles, CA, 90020",+1 213-380-4255,,https://locations.carlsjr.com/ca/los-angeles/3005-w-6th-st,,burger,,yes,,,,fast_food,
Domino's,"270 South Rampart Boulevard, Los Angeles, CA, 90057",+1 213-383-1330,,https://pizza.dominos.com/california/los-angeles/270-s-rampart-blvd,10:00-01:00,pizza,,yes,,,,fast_food,
Jack in the Box,"1710 Glendale Boulevard, Echo Park, CA, 90026",+1 323-661-7225,,https://locations.jackinthebox.com/us/ca/echo-park/1710-glendale-blvd,,burger,,yes,,,,fast_food,
Chipotle,"2134 West Sunset Boulevard, Los Angeles, CA, 90026",+1 213-989-6914,,https://locations.chipotle.com/ca/los-angeles/2134-w-sunset-blvd,,mexican,,yes,,,,fast_food,
Domino's,"1381 West Sunset Boulevard, Los Angeles, CA, 90026",+1 213-413-8444,,https://pizza.dominos.com/california/los-angeles/1381-w-sunset-blvd,Mo-Th 10:30-24:00; Fr-Sa 10:30-01:00; Su 10:30-24:00,pizza,,yes,,,,fast_food,
Panda Express,"1969 Zonal Avenue, Los Angeles, CA, 90006",+1 323-442-1934,,https://www.pandaexpress.com/locations/ca/los-angeles/1893,Mo-Fr 10:00-15:00,chinese,,yes,,,,fast_food,
Chipotle,"2200 Trojan Way, Los Angeles, CA, 90033",+1 909-480-3436,,https://locations.chipotle.com/ca/los-angeles/2200-trojan-way,,mexican,,yes,,,,fast_food,
Dunkin',"2200 East Trojan Way, Los Angeles, CA, 90033",+1 323-505-7037,,https://locations.dunkindonuts.com/en/ca/los-angeles/2200-e-trojan-way/363326,Mo-Th 05:00-18:00; Fr 05:00-19:00; Sa 06:00-18:00; Su 06:00-16:00,donut;coffee_shop,,yes,,,,fast_food,
KFC,"2801 West Olympic Boulevard, Los Angeles, CA, 90006",,,https://locations.kfc.com/ca/los-angeles/2801-west-olympic-boulevard/,10:00-23:00,chicken,,yes,,,,fast_food,
Champion Donuts,"3209 N Broadway, Lincoln Heights, CA, 90031",,,,,donut,,,,,,fast_food,
Subway,"3335 South Figueroa Street, 90007",,,https://restaurants.subway.com/united-states/ca/los-angeles/3335-s-figueroa-street,Mo-Su 08:00-23:00,sandwich,,yes,,,,fast_food,
Viva Tacos La Estrella,"3733 N. Mission Rd., Los Angeles, CA, 90031",(323) 225-1148,tacos_estrella@icloud.com,https://laestrella-243479.square.site/,Mo-Sa 10:00-20:00; Su 10:00-19:00,mexican,,,,,,fast_food,
Pioneer Chicken,"904 South Soto Street, Los Angeles, CA, 90023",+1-323-262-4562,,https://pioneerchickenla.com/,10:00-21:00,burger,,,,,,fast_food,
Highland Tamalezzz,"3031 North Broadway, Los Angeles, CA, 90031",,,,Su-Sa 07:00-09:00,mexican;tamales,,,,,,fast_food,
The Habit Burger Grill (Habit Burger Grill),The Habit Burger Grill (Habit Burger Grill),,,,,,,,,,,fast_food,
ABC Chinese Fast Food,ABC Chinese Fast Food,,,,,chinese,,,,,,fast_food,
Braazo Pizza,Braazo Pizza,,,,,pizza,,,,,,fast_food,
Alibrijes Mexican Grill,Alibrijes Mexican Grill,,,,,mexican,,,,,,fast_food,
Carl's Jr.,Carl's Jr.,,,,,burger,,yes,,,,fast_food,
Sputnuts Donuts,3001 South Figueroa Street,+12137490678,,http://www.spudnutshop.com/,24/7,donut,,,,,,fast_food,
Yoshinoya,3021 South Figueroa Street,+12137493196,,https://www.yoshinoyaamerica.com/,"Su-Fr 10:00-26:00, Sa 11:00-26:00",beef_bowl,,yes,,,,fast_food,
My Dung Sandwich,My Dung Sandwich,,,,,sandwich,,,,,,fast_food,
McDonald's,"690 Alameda Street, Los Angeles, CA, 90021",+1 213-489-1989,,https://www.mcdonalds.com/us/en-us/location/18368.html,05:30-18:00,burger,,yes,,,,fast_food,
Burger King,"700 Cesar Chavez Avenue, Los Angeles, CA, 90012-2103",+1 213-626-0152,,https://www.bk.com/store-locator/store/restaurant_6458,Mo-Sa 06:00-20:00; Su 07:00-20:00,burger,,yes,yes,,,fast_food,
Tacos Mexico,"913 South Broadway, Los Angeles, CA, 90013;90015",,,https://www.tacosmexico.com/;tacosmexico.com,,mexican,,,,,,fast_food,
Farmer Boys,"Los Angeles, CA",,,,,burger,,yes,,,,fast_food,
McDonald's,"1660 Venice Boulevard, Los Angeles, CA, 90006",+1 323-733-8697,,https://www.mcdonalds.com/us/en-us/location/25642.html,05:00-23:00,burger,,yes,,,,fast_food,
Panda Express,Panda Express,,,,,chinese,,yes,,,,fast_food,
Jack in the Box,"2921 South Figueroa Street, Los Angeles, CA, 90007",+1 213-745-5530,,https://locations.jackinthebox.com/us/ca/los-angeles/2921-s-figueroa-st,,burger,,yes,,,,fast_food,
Taco Bell,"103 South Rampart Boulevard, Los Angeles, CA, 90057",+12133869012,,https://locations.tacobell.com/ca/los-angeles/103-s-rampart-blvd.html?,Mo-Fr 07:00-04:00,tex-mex,,yes,,,,fast_food,
El Pollo Loco,"330 North Alvarado Street, Los Angeles, CA, 90026",+1-213-353-0084,,https://restaurants.elpolloloco.com/ca/los-angeles/330-n-alvarado-st,Mo-Su 09:30-23:00,mexican,,yes,yes,,,fast_food,
Popeyes,"2532 South Figueroa Street, Los Angeles, CA, 90007",+1 213-261-6658,,https://www.popeyes.com/store-locator/store/restaurant_81905,10:00-22:00,chicken,,yes,yes,,,fast_food,
McDonald's,"201 West Washington Boulevard, CA, 90007, US",+1 213-746-0525,,https://www.mcdonalds.com/us/en-us/location/ca/los-angeles/201-w-washington-blvd/6688.html,Mo-Su 05:30-19:00,burger,,yes,,,,fast_food,
King Taco,Los Angeles,,,,,mexican,,yes,,,,fast_food,
McDonald's,"6345 Wilshire Boulevard, Los Angeles, CA, 90017",+1 213-483-8702,,https://www.mcdonalds.com/us/en-us/location/25706.html,07:00-22:00,burger,,yes,,,,fast_food,
McDonald's,"2020 West Olympic Boulevard, Los Angeles, CA, 90006",+1 213-536-4573,,https://www.mcdonalds.com/us/en-us/location/4589.html,07:00-21:00,burger,,yes,,,,fast_food,
Joe K's,Joe K's,,,,,,,,,,,fast_food,
Jack in the Box,"1335 South Soto Street, Los Angeles, CA, 90023",+1 323-263-1450,,https://locations.jackinthebox.com/us/ca/los-angeles/1335-s-soto-st,,burger,,yes,,,,fast_food,
Carl's Jr.,"1751 South Soto Street, Los Angeles, CA, 90023",+1 323-264-4232,,https://locations.carlsjr.com/ca/los-angeles/1751-s-soto-st,,burger,,yes,,,,fast_food,
McDonald's,"1210 South Soto Street, Los Angeles, CA, 90023-2616, US",+1 323-267-1717,,https://www.mcdonalds.com/us/en-us/location/4844.html,04:30-20:00,burger,,yes,,,,fast_food,
Yoshinoya,"Los Angeles, CA",,,,,beef_bowl,,yes,,,,fast_food,
Tacos el Hermanos,Los Angeles,,,,,mexican,,,,,,fast_food,
Jack in the Box,"1415 South Alameda Street, Los Angeles, CA, 90021",+1 213-746-8827,,https://locations.jackinthebox.com/us/ca/los-angeles/1415-s-alameda-st,,burger,,yes,,,,fast_food,
McDonald's,McDonald's,,,https://www.mcdonalds.com/us/en-us/location/ca/los-angeles/1310-e-olympic-blvd/7037.html,,burger,,yes,,,,fast_food,
El Pollo Loco,"2000 Cesar E Chavez Avenue, Los Angeles, CA, 90033",+1-323-265-0179,,https://restaurants.elpolloloco.com/ca/los-angeles/2000-cesar-e-chavez-ave,Mo-Su 10:00-21:00,mexican,,yes,,,,fast_food,
Carl's Jr.,"2320 East 4th Street, Los Angeles, CA, 90033",+1 323-262-2603,,https://locations.carlsjr.com/ca/los-angeles/2320-e-4th-st,,burger,,yes,,,,fast_food,
Fosters Freeze,"2704 Whittier Boulevard, Los Angeles, CA, 90023",,,,,burger;ice_cream,,yes,,,,fast_food,
Cypress Best Burgers,Cypress Best Burgers,,,,,burger,,,,,,fast_food,
McDonald's,"2224 North Figueroa Street, Los Angeles, CA, 90065",+1 323-223-3659,,https://www.mcdonalds.com/us/en-us/location/11377.html,05:00-19:00,burger,,yes,,,,fast_food,
McDonald's,"1716 Marengo Street, Los Angeles, CA, 90033-1315",+1 323-221-4980,,https://www.mcdonalds.com/us/en-us/location/1304.html,05:00-22:00,burger,,yes,,,,fast_food,
King Taco,"1118 Cypress Avenue, Los Angeles, CA, 90065",(323) 223-2595,,https://kingtaco.com/,,mexican,,yes,,,,fast_food,
Tacos Chapalita,Tacos Chapalita,,,,,,,,,,,fast_food,
Jack in the Box,"2701 East Cesar East Chavez Avenue, Los Angeles, CA, 90033",+1 323-268-1589,,https://locations.jackinthebox.com/us/ca/los-angeles/2701-e-cesar-e-chavez-ave,,burger,,yes,,,,fast_food,
McDonald's,"245 North Soto Street, Los Angeles, CA, 90033-2914, US",+1 323-263-9447,,https://www.mcdonalds.com/us/en-us/location/10129.html,05:00-22:00,burger,,yes,,,,fast_food,
McDonald's,"3458 Whittier Boulevard, Los Angeles, CA, 90023, US",+1 323-263-2559,,https://www.mcdonalds.com/us/en-us/location/1136.html,05:00-22:00,burger,,yes,,,,fast_food,
KFC,"624 South Lorena, Los Angeles, CA, 90023",,,https://locations.kfc.com/ca/los-angeles/624-south-lorena/,10:00-22:00,chicken,,yes,,,,fast_food,
Subway,"800 North Alameda Street, Los Angeles, CA, 90012",+1 213-687-8757,,https://restaurants.subway.com/united-states/ca/los-angeles/800-north-alameda-st,Mo-Fr 06:00-22:00; Sa-Su 07:00-22:00,sandwich,,yes,,,,fast_food,
Wetzel's Pretzels,Wetzel's Pretzels,,,,,pretzel,no,yes,,yes,,fast_food,
Dino's Famous Chicken,"2575 West Pico Boulevard, Los Angeles, CA, 90006",+1-213-380-3554,,,,,,,,,,fast_food,
Tacos Gavilan,"1900 South Central Avenue, Los Angeles",,,,,mexican,,,,,,fast_food,
