name,address,phone,email,website,opening_hours,cuisine,outdoor_seating,takeaway,delivery,wheelchair,payment_methods,amenity,shop
Philippe The Original,1001 North Alameda Street,+1 (213) 628-3781,customerservice@philippes.com,https://www.philippes.com/,Mo-Su 06:00-22:00,american,,yes,,yes,Cash,restaurant,
Cole's P.E. Buffet,"118 East 6th Street, Los Angeles, CA",,,https://www.colesfrenchdip.com/,,,,,,no,,restaurant,
Bottega Louie,Bottega Louie,,,,Sa-Th 07:00-23:00; Fr 07:00-12:00,italian,no,yes,,yes,,restaurant,
Lili Ya,Lili Ya,,,,,,,,,,,restaurant,
Restaurant Aoi,"331 E. 1st St., 90012",,,,,japanese,,,,,,restaurant,
Daikokuya,"327 E 1st St., US",,,,,japanese,,,,,,restaurant,
Great Thai,Great Thai,,,,,,,,,,,restaurant,
Yard House,"800 West Olympic Boulevard, Los Angeles, CA, 90015",,,,"Su-Th 11:00-24:00, Fr,Sa 11:00-01:00",american,,,,yes,,restaurant,
Drago Centro,Drago Centro,,,,,,,,,,,restaurant,
Ciudad,Ciudad,,,,,,,,,,,restaurant,
Wokcano,Wokcano,,,https://www.wokcanorestaurant.com/,,asian,,,,,,restaurant,
Wolfgang Puck,Wolfgang Puck,,,,,,,,,,,restaurant,
Cafe Pinot,Cafe Pinot,,,,,,,,,,,restaurant,
Daily Grill,Daily Grill,,,,,american,,,,,,restaurant,
The Counter,The Counter,,,,,burger,,,,,,restaurant,
Izakaya Gazen,362 East 1st Street,,,,,japanese,,,,,,restaurant,
Original Pantry Cafe,Original Pantry Cafe,,,,24/7,american,no,yes,,yes,,restaurant,
Purgatory Pizza,Purgatory Pizza,,,https://www.eatpurgatorypizza.com/,,,,,,,,restaurant,
Empress Pavilion,Empress Pavilion,,,,,,,,,,,restaurant,
Majestic Malt Shop,Majestic Malt Shop,,,,,,,,,,,restaurant,
Wurstküche,"608 1/2 E. 3rd, Los Angeles, 90013, US",213 687 4444,,https://www.wurstkuche.com/,,german,,,,,,restaurant,
Mr. Ramen,"341 E. 1st St., 90012",,,,,japanese,,,,,,restaurant,
Rakkan Ramen,359 East 1st Street,,,,,japanese,,,,,,restaurant,
Far Bar,"347 E. 1st St., Los Angeles, CA, 90012",,,https://www.farbarla.com/,,,,,,,,restaurant,
Korean BBQ House,"123 Astronaut Ellison S Onizuka Street, Los Angeles, CA, 90012",213-680-1826,,https://www.koreabbqhouse.com/,Mo-Fr 10:00-21:00; Sa-Su 11:00-21:00,korean,,,,,,restaurant,
Suehiro Cafe,"337 E. 1st St., 90012",,,,,japanese,,,,,,restaurant,
San Sui Tei,"313 E. 1st St., 90012",213-613-0100,,,,japanese,,,,,,restaurant,
JiST Cafe,"116 Judge John Aiso St., Los Angeles, CA, 90012",,,,,,,,,,,restaurant,
Sugarfish,"600 West 7th Street, Los Angeles, CA, 90017",,,https://sugarfishsushi.com/,Mo-Su 11:30-22:00,sushi,,,,,,restaurant,
IHOP,"800 South Flower Street, Los Angeles, CA, 90017",,,https://restaurants.ihop.com/en-us/ca/los-angeles/breakfast-800-s-flower-st-797,24/7,breakfast;pancake,,,,yes,,restaurant,
Roy's Hawaiian Fusion,"800 S. Figueroa St., 90017",(213) 488-4994,,https://www.roysrestaurant.com/,,,,,,,,restaurant,
Panini Cafe Downtown,"600 W. 9th St., 90015",(213) 489-4200,,mypaninicafe.com,,sandwich,,,,,,restaurant,
Nickel Diner,"524 South Main Street, Los Angeles, 90013",,,,"Tu-Su 08:00-15:30,18:00-22:00",american,,,,limited,,restaurant,
First Cup Caffe,First Cup Caffe,,,,,,,,,,,restaurant,
Guisados,"1261 West Sunset Boulevard, 90026",+1 213-250-7600,,https://www.guisados.la/,Mo-Th 10:00-22:00; Fr-Sa 09:00-22:00; Su 09:00-21:00,mexican;tacos,,,,,,restaurant,
La Parrilla,La Parrilla,,,,,mexican,,,,,,restaurant,
El Tepeyac (Manuel's),"810 North Evergreen Street, Los Angeles, CA, 90033",,,http://www.manuelseltepeyac.com/,,mexican,,,,,,restaurant,
The Blue Cube,The Blue Cube,,,,,,,,,,,restaurant,
Blossom,CA,,,,,,,,,yes,,restaurant,
Bäco Mercat,"408 South Main Street, CA",+12136878808,,http://www.bacomercat.com,"Mo-Th 11:30-14:30, 17:30-23:00; Fr, Sa 11:30-15:00, 17:30-00:00; Su 11:30-15:00, 17:00-22:00",,,,,limited,,restaurant,
Soot Bull Jeep,3136 8th Street,,,,,korean,,,,,,restaurant,
The Park's Finest BBQ,1267 W Temple St,,,https://www.theparksfinest.com/,,american,,,,,,restaurant,
Polanco Modern Mexican Steakhouse,"840 South Spring Street, Los Angeles, 90014",(213) 265-7085,,https://polancorestaurantgroup.com/,,mexican,,,,,,restaurant,
Los Molcajetes Restaurant,"Los Angeles, 90005",,,,,salvadoran,,,,,,restaurant,
Badmaash,Badmaash,,,,,indian,,,,,,restaurant,
23rd Street Cafe,23rd Street Cafe,,,,,mexican;indian;american,,,,,,restaurant,
Beverly Soon Tofu Restaurant,"2717 West Olympic Boulevard, Los Angeles, 90006",+1 213-380-1113,,https://www.beverlysoontofu.com/,10:30-22:30,korean,,,,,,restaurant,
Chiguacle,Chiguacle,,,,,mexican,,,,,,restaurant,
Justice Urban Tavern,"120 Los Angeles Street, Los Angeles, 90012",213-253-9235,,http://www.justicela.com,Su-Th 06:00-23:00; Fr-Sa 06:00-24:00,american,,,,,,restaurant,
Les Noces de Figaro,"618 South Broadway, Los Angeles, 90014",,,,,french,,,,,,restaurant,
Sib Song,Sib Song,,,,,thai,,,,,,restaurant,
Kazu Nori,"421 S Main Street, Los Angeles, 90013",,,,Mo-Th 11:30-23:00;Fr-Sa 11:30-24:00;Su 12:00-22:00,japanese,,,,,,restaurant,
Blue Cow,Blue Cow,,,,,,,,,,,restaurant,
Prufrock Pizzaria,Prufrock Pizzaria,,,,"Mo-Fr 11:00-01:00, Sa-Su 10:00-01:00",pizza,,,,,,restaurant,
Black Sheep,Black Sheep,,,,,,,,,,,restaurant,
The Escondite,"410 Boyd Street, Los Angeles, CA, 90013",,,,,,,,,,,restaurant,
Shin-Sen-Gumi Hakata Ramen,"132 South Central Avenue, Los Angeles, CA, 90012",,,,,,,,,,,restaurant,
Surawon,"2833 West Olympic Boulevard, 90006",+1 (213) 383-7317,,,Su-Th 10:00-22:00; Fr-Sa 10:00-23:00,korean,,,,,,restaurant,
Jang An Restaurant,Jang An Restaurant,,,,,,,,,,,restaurant,
Masan Restaurant,Masan Restaurant,,,,,,,,,,,restaurant,
The Restaurant at The Standard,The Restaurant at The Standard,,,,,,,,,,,restaurant,
Anson's Eatery,"124 West 9th Street, Los Angeles, CA, 90015",+1 213 8910858,,,,sandwich,,,,,,restaurant,
Vespaio,Vespaio,+1 213-221-7244,,https://www.vespaiodtla.com/,,italian,yes,,,,,restaurant,
Pour Haus,"1820 Industrial Street, Los Angeles, CA, 90021",,,,,,,,,,,restaurant,
The Chairman,"1200 East 5th Street, Los Angeles, CA, 90013, US",,,www.thechairmanla.com,Mo-Sa 11:30-21:00,chinese,,,,,,restaurant,
Nick's Cafe,"1300 North Spring Street, Los Angeles, 90012",,,,,,,,,,,restaurant,
TBLA Catering & Cafe,"765 Santee Street, Los Angeles, 90014",,,http://www.tblacaters.com/,,,,,,,,restaurant,
Nabeeya,"766 Santee Street, Los Angeles, 90014",,,,,sushi,,,,,,restaurant,
Guero's Cocina Mexicana,"737 South Los Angeles Street, Los Angeles, 90014",,,http://guerosla.com/,,mexican,,,,,,restaurant,
Wood Spoon,"107 West 9th Street, Los Angeles, 90015",,,https://www.woodspoonla.com/,,,,,,,,restaurant,
Peking Tavern,"806 South Spring Street, Los Angeles, 90014",,,http://pekingtavern.com/,,chinese,,,,,,restaurant,
Terroni,"802 South Spring Street, Los Angeles, 90014",,,https://www.terroni.com/,,italian,,,,,,restaurant,
Two Boots,"828 South Broadway, Los Angeles, 90014",,,https://twoboots.com/,,pizza,,,,,,restaurant,
Umami Burger,"852 South Broadway, Los Angeles, 90015",,,https://umamiburger.com/,,burger,,,,,,restaurant,
Masa of Echo Park,"1800 Sunset Boulevard, Los Angeles, CA, 90026",+1 213-989-1558,,https://www.masaofechopark.com/,Mo-Tu off; We-Su 11:00-22:00,pizza,,yes,,,,restaurant,
Brite Spot Diner,"1918 Sunset Boulevard, Los Angeles, CA, 90026",+1 213-484-9800,,,Th-Su 08:00-14:00,american;breakfast;coffee_shop,,,,,,restaurant,
Papi's Pizza,"109 East 8th Street, Los Angeles, 90014",,,,,pizza,,yes,yes,,,restaurant,
WOOD,"2861 Sunset Boulevard, Los Angeles, CA, 90026",+1-323-667-9940,mailto:info@woodsilverlake.com,https://woodsilverlake.com/,Mo-Su 11:00-23:00,pizza;pasta;salad;steak_house,no,yes,,,,restaurant,
Silverlake Ramen,"2927 Sunset Boulevard, Los Angeles, CA, 90026",+1-323-660-8100,,https://www.silverlakeramen.com/,Su-Th 11:30-23:00; Fr-Sa 11:30-01:45,noodle;japanese;sushi,,,,,,restaurant,
Chiguacle,"3129 Sunset Boulevard, Los Angeles, CA, 90026",+1 323-741-0001,,https://chiguacle.com/,Mo-Th 11:00-20:00; Fr 11:00-21:00; Sa 10:00-21:00; Su 10:00-20:00,mexican,,,,,,restaurant,
Margarita's Place,"103 East 7th Street, Los Angeles, 90014",,,,,mexican,,,,,,restaurant,
Cafe Alba,"718 South Los Angeles Street, Los Angeles, 90014",,,,,,,,,,,restaurant,
Bronzed Aussie,"714 #A South Los Angeles Street, Los Angeles, 90014",,,,,,,,,,,restaurant,
Pizza Hut,"718 South Los Angeles Street, Los Angeles, CA, 90014",+1 213-489-3863,,https://locations.pizzahut.com/ca/los-angeles/718-s-los-angeles-st,,pizza,,,,,,restaurant,
Mexican Village,Mexican Village,,,,,mexican,,,,,,restaurant,
Tacos Mexico,Tacos Mexico,,,,,mexican,,,,,,restaurant,
Don Felix,Don Felix,,,,,peruvian,,,,,,restaurant,
Clay Pit,"309 N Virgil Ave, Los Angeles, CA, 90004-3624",+1-323-644-6989,,https://www.indiasclaypit.com/,"Mo-Fr 11:00-15:00,17:00-23:00; Sa-Su 13:00-23:00",indian,no,yes,,,,restaurant,
Yxta Cocina Mexicana,"601 Central Avenue, Los Angeles, CA",,,,,,,,,,,restaurant,
Hong Kong BBQ,Hong Kong BBQ,,,,,,,,,,,restaurant,
Hop Woo BBQ & Seafood Restaurant,Hop Woo BBQ & Seafood Restaurant,,,,,,,,,,,restaurant,
Yang Chow Restaurant,Yang Chow Restaurant,,,,,,,,,,,restaurant,
Brunch,"718 South Los Angeles Street, Los Angeles, CA, 90014",,,,,breakfast,,,,,,restaurant,
Sonoratown,"208 East 8th Street, Los Angeles, CA, 90014",,,,,mexican,,,,,,restaurant,
Langer's,Langer's,+1 213-483-8050,,https://www.langersdeli.com/,Mo-Sa 08:00-16:00,jewish,no,yes,,yes,,restaurant,
Señor Fish,Señor Fish,,,,,mexican,,,,,,restaurant,
Yong Su San Restaurant,Yong Su San Restaurant,,,,,,,,,,,restaurant,
Taco House #1,Taco House #1,,,,,mexican,,,,,,restaurant,
Art and Fish,"564 South Mateo Street, Los Angeles, CA, 90013",,,,,,,,,,,restaurant,
Otium,"222 South Hope Street, Los Angeles, 90012",,,https://otiumla.com/,,,,,,,,restaurant,
California Pizza Kitchen,California Pizza Kitchen,,,,,pizza,,,,,,restaurant,
Morton's The Steakhouse,Morton's The Steakhouse,,,,,steak_house,,,,,,restaurant,
Foo Chow,"949 North Hill Street, Los Angeles, CA, 90012",,,,,chinese,,yes,,,,restaurant,
Denny's,"888 Figueroa Street, Los Angeles, CA, 90017",+1 213-629-4250,,https://locations.dennys.com/CA/LOS-ANGELES/247569,24/7,american,,,,yes,,restaurant,
Burgerlords,"943 North Broadway, Los Angeles, CA, 90012",,,https://www.burgerlords.com,Th-Su 12:00-20:00,burger,,,,,,restaurant,
71Above,"633 West 5th Street, 90071",+1 (213) 712-2683,,https://www.71above.com/,,american,,,,,,restaurant,
Elf Café,2135 West Sunset Boulevard,+12134846829,,https://www.elfcafe.com/,Mo-Sa 18:00-23:00,,,,,,,restaurant,
Honey Hi,1620 Sunset Boulevard,+12132217810,mailto:hi@honeyhi.co,https://honeyhi.co/,Mo 10:00-16:00; Tu-We 09:00-17:00; Th-Su 09:00-16:00,breakfast;lunch,,yes,,,,restaurant,
Perch,US,,,,,,,,,,,restaurant,
KoBaWoo Restaurant,"698 South Vermont Avenue, Los Angeles, CA, 90005",+1-213-389-7300,,,,asian,,,,,,restaurant,
Nick & Stef's Steakhouse,Nick & Stef's Steakhouse,,,,,,,,,,,restaurant,
Uncle John's Cafe,"421 West 8th Street, Los Angeles, CA, 90017",(213) 623-3555,,http://unclejohnsdtla.com,,american;chinese;vietnamese,,,,,,restaurant,
Jeon Ju,"2716 West Olympic Boulevard, 90006",,,,,korean,,,,,,restaurant,
D-Town Burger Bar,D-Town Burger Bar,,,,,,,,,,,restaurant,
Springtime in New York Cafe,"557 South Spring Street, Los Angeles, US",+1 310 256 2400,,,,sandwich,,,,,,restaurant,
The Little Jewel of New Orleans,"207 Ord Street, 90012",,,,,,,,,,,restaurant,
Karl Strauss Brewing Company,Karl Strauss Brewing Company,,,,,american,,,,,,restaurant,
Las Anitas,26 Olvera Street,,,,,mexican,no,,,,,restaurant,
El Paseo Inn,11 Olvera Street,,,,,mexican,,,,,,restaurant,
La Golondrina Cafe,La Golondrina Cafe,,,,,mexican,,,,,,restaurant,
Maruya,Maruya,,,,,ramen,,,,,,restaurant,
Hibachi BBQ,Hibachi BBQ,,,,,korean,,,,,,restaurant,
Shabu-Shabu House,"127 Japanese Village Plaza Mall, Los Angeles, CA, 90012",,,,"Su-Th 11:00-22:00; Fr,Sa 11:00-22:30",japanese,,,,,,restaurant,
Kagura Downtown,US,,,,,japanese,,,,,,restaurant,
Urth Cafe,Urth Cafe,,,,,,,,,,,restaurant,
The Factory Kitchen,"1300 Factory Place, Los Angeles, CA, 90013, US",(213)996-6000,,,,italian,,,,,,restaurant,
Redbird LA,"114 East 2nd Street, Los Angeles, CA, 90012",+12137881191,,https://redbird.la,Mo-Su 17:00-22:00,american,,,,,,restaurant,
Pacific Restaurant,Pacific Restaurant,,,,,,,,,,,restaurant,
Holy Crab,Holy Crab,,,,,,,,,,,restaurant,
Kamara,Kamara,,,,,,,,,,,restaurant,
CAVA,"3201 South Hoover Street, Los Angeles, CA, 90007",+12132129838,,https://cava.com/,Mo-Su 10:45-22:00,mediterranean,yes,yes,no,,,restaurant,
Il Giardino,"3201 Hoover Street, Los Angeles, CA, 90089",,,,,italian;pasta;pizza,yes,,,,,restaurant,
LudoBird,"1111 S Figueroa Street, 90015",,,,,,,,,,,restaurant,
Greekman's,"2619 Sunset Boulevard, Los Angeles, CA, 90026",+1 213-500-0916,mailto:info@freedmansLA.com?subject=Hey Greekman's!,https://www.greekmansla.com/,Mo-Tu off; We-Su 17:00-22:00,greek,,,,,,restaurant,
fundamental,"750 South Grand Avenue, Los Angeles, CA, 90017",,,,,,,,,,,restaurant,
Oriel Wine Bar,"1135 North Alameda Street, Los Angeles, CA, 90012",,,,,,,,,,,restaurant,
Rossoblu,"1124 San Julian Street, Los Angeles, CA",,,,"We 17:00-21:00; Th 17:00-21:00; Fr,Sa 17:00-21:30; Su 11:00-14:30,17:00-21:00; Mo,Tu off",,,,,,,restaurant,
Phoenix Bakery,"969 North Broadway, Los Angeles, CA, 90012",,,,Mo-Su 10:00-16:00,,,,,,,restaurant,
Hop Louies,Hop Louies,,,,,chinese,,,,,,restaurant,
Broadway Cuisine,"913 North Broadway, Los Angeles, CA, 90012",+1 213-265-7140,,https://broadway-cuisine.com/,"Mo-Th,Su 11:30-21:30; Fr-Sa 11:30-22:00",chinese,,,,yes,"Cash, Credit Cards, Debit Cards",restaurant,
Pez Cantina,"401 South Grand Avenue, Los Angeles, CA, 90071",+1-213-258-2280,,https://www.pezcantina.com,Mo 11:30-14:30; Tu-Th 11:30-21:00; Fr 11:30-23:00; Sa 11:00-23:00,mexican;seafood,,,,,,restaurant,
LiOrient,LiOrient,,,,,asian,,,,,,restaurant,
Casa Impanema,Casa Impanema,,,,,,,,,,,restaurant,
Blossom,"451 Gin Ling Way, Los Angeles, CA, 90012",,,,,vietnamese,,yes,,,,restaurant,
Yuk Dae Jang,Yuk Dae Jang,,,,,korean,,,,,,restaurant,
Pizzanista,"2019 East 7th Street, 90021",+12136271430,,https://pizzanista.com/,Tu-Sa 11:00-00:00; Su 11:00-22:00,italian_pizza,,,,,,restaurant,
Night + Market Song,"3322 Sunset Boulevard, Los Angeles, CA, 90026",+1-323-665-5899,,http://www.nightmarketla.com/,"Mo-Tu 17:00-22:00; We-Th off; Fr-Su 13:00-15:00,17:00-22:00",thai,,,,,,restaurant,
Osen Izakaya,"2903 Sunset Boulevard, Los Angeles, 90029",+1-323-928-2220,,https://osenizakaya.com/,Mo-Th 13:00-23:00; Fr-Sa 13:00-00:00; Su 13:00-22:00,japanese;noodle,,,,,,restaurant,
Pho Cafe,"2841 Sunset Boulevard, Los Angeles, CA, 90026",+1-213-413-0888,,https://phocafe.juisyfood.com/,Mo-Su 11:00-00:00,asian,,,,,,restaurant,
Mae Ploy Restaurant,"2606 Sunset Boulevard, Los Angeles, CA, 90026",+1-213-353-9635,,maeployrestaurant.com,Mo-Sa 07:00-19:00; Su off,thai,,,,,,restaurant,
Marielas Taco,"2501 Sunset Boulevard, Los Angeles, CA, 90026",+1-213-413-0484,,,Mo-Su 10:00-22:00,mexican;tacos,,,,,,restaurant,
King Bowl - Best Chinese Food,"2214 Sunset Boulevard, Los Angeles, CA, 90026",+1-213-484-9676,,,Mo-Sa 10:30-20:00; Su 11:00-20:00,chinese,,,,,,restaurant,
Mohawk Bend,"2141 Sunset Boulevard, Los Angeles, CA, 90026",+1-213-483-2337,,https://www.mohawk.la/,Mo-Th 11:30-00:00; Fr 11:30-02:00; Sa 9:30-02:00; Su 9:30-00:00,american;drinks,,,,,,restaurant,
Sweetfin Poké,"3112 Sunset Boulevard, Los Angeles, CA, 90026",+1-323-300-6210,,https://www.sweetfinpoke.com/,Mo-Su 11:00-22:00,hawaiian;fish;poke,,,,,,restaurant,
Mr. Masala,Mr. Masala,,,,,indian,,,,,,restaurant,
La Guadalupana,La Guadalupana,,,,,,,,,,,restaurant,
Atitlan Express,Atitlan Express,,,,,guatemalan,,,,,,restaurant,
El Cholo,El Cholo,,,,Mo-Su 11:00-18:00,mexican,,,,,,restaurant,
Full House Seafood,"963 North Hill Street, Los Angeles, CA, 90012",213-617-8382,,https://www.fullhouseseafood.com/,Mo-Su 11:00-21:30,chinese,,yes,no,,,restaurant,
Full Moon House,"960 North Hill Street, Los Angeles, CA, 90012",+12135370792,,https://www.fullmoonhouse.com/,"Mo-Th 11:00-15:00,17:30-24:00; Fr-Sa 11:00-01:00, Su 11:00-24:00",chinese,no,yes,no,,,restaurant,
PHO 87,"1019 North Broadway, Los Angeles, CA, 90012",+1-323-227-0758,,,Mo-Fr 10:00-21:00,vietnamese,,yes,no,,,restaurant,
Sticky Rice,"1801 Sunset Boulevard, Los Angeles, CA, 90026",+1-323-284-8744,,https://www.eatstickyrice.com/,Mo 18:00-22:00; Tu-Th 12:00-22:00; Fr-Su 12:00-23:00,thai,yes,,,,,restaurant,
Colori Kitchen,Colori Kitchen,,,,,italian,,,,,,restaurant,
Pho Legend Noodle and Grill,"209 South Vermont Avenue, Los Angeles, CA, 90004",+1-213-381-3300,,http://www.pholegendnoodleandgrill.com/,Mo-Th 10:30-22:00; Fr-Sa 10:30-23:00; Su 10:30-22:00,vietnamese,no,,,,,restaurant,
Bavel,"500 Mateo Street, Los Angeles, CA, 90013",+1-213-232-4966,info@baveldtla.com,https://baveldtla.com,Mo-Th 17:00-23:00; Fr-Sa 17:00-24:00; Su 17:00-23:00,middle_eastern,,,,,,restaurant,
Thai,Thai,,,,,,,,,,,restaurant,
LASA,"727 North Broadway, Los Angeles, CA, 90012",+1-213-443-6163,info@lasa-la.com,https://www.lasa-la.com/,"We-Fr 12:00-15:00,18:00-20:00; Sa-Su 11:00-15:00,18:00-20:00",filipino,yes,yes,,,,restaurant,
Howlin' Ray's,"727 North Broadway, Los Angeles, CA, 90012",+1-213-935-8399,hello@howlinrays.com,https://howlinrays.com/,Tu-Fr 11:00-19:00; Sa-Su 10:00-19:00,fried_chicken,yes,yes,,,,restaurant,
El Borrego De Oro Restaurant,"2403 Whittier Boulevard, Los Angeles, CA, 90023",+1 323-780-4213,,http://borregodeoro.com,,,,,,,,restaurant,
Simone,"447 South Hewitt Street, Los Angeles, CA, 90013",,,,,,,,,,,restaurant,
Border Grill,"445 Figueroa Street, Los Angeles",,,,,mexican,,,,,,restaurant,
Bestia,"2121 East 7th Place, Los Angeles, CA, 90021",,,,,,,,,,,restaurant,
ediBOL,"300 South Santa Fe Avenue, Los Angeles, CA, 90013",,,,,,,,,,,restaurant,
Eat Drink Americano,"923 East 3rd Street, Los Angeles, CA, 90013",,,,,,,,,,,restaurant,
INKO NITO - Downtown,"225 South Garey Street, Los Angeles, CA, 90012",,,,,,,,,,,restaurant,
Manuela,"907 South Garey Street, Los Angeles, CA, 90013",,,,,,,,,,,restaurant,
BRERA Ristorante,"1331 East 6th Street, Los Angeles, CA, 90021",,,,,,,,,,,restaurant,
Poppy + Rose,"765 Wall Street, Los Angeles, CA, 90014",+1 213-995-7799,,https://www.poppyandrose.com,09:00-15:00,,,,,,,restaurant,
Le Grand,"707 South Grand Avenue, Los Angeles, CA, 90017",,,,Mo-Th 17:00-22:00; Fr 17:00-23:00; Sa 11:00-23:00; Su 11:00-22:00,,,,,,,restaurant,
Zinque,"939 South Broadway, Los Angeles, CA, 90015",,,,,french,yes,yes,,yes,,restaurant,
WP24 by Wolfgang Puck,"900 West Olympic Boulevard, Los Angeles, CA, 90015",,,,,,,,,,,restaurant,
Tocaya Organica,"801 South Olive Street, Los Angeles, CA, 90014",(213) 262-1805,,https://www.tocaya.com/,,mexican,,,,,,restaurant,
Duello,"449 South Hewitt Street, Los Angeles, CA, 90013, US",,,,,,,,,,,restaurant,
The Manufactory,"757 South Alameda Street, Los Angeles, CA, 90021, US",,,,,,,,,,,restaurant,
Broken Spanish,"1050 South Flower Street, Los Angeles, CA, 90015",,,,,,,,,,,restaurant,
Water Grill,"544 South Grand Avenue, Los Angeles, CA, 90071",,,,,,,,,,,restaurant,
The Exchange,"416 West 8th Street, Los Angeles, CA, 90014",,,,,,,,,,,restaurant,
Orsa & Winston,"122 West 4th Street, Los Angeles, CA, 90013",,,,,,,,,,,restaurant,
Dune Downtown,"199 West Olympic Boulevard, Los Angeles, CA, 90015",,,,,,,,,,,restaurant,
Faith & Flower,"705 West 9th Street, Los Angeles, CA, 90015",,,,,,,,,,,restaurant,
The House of Machines,"2028 East 7th Street, Los Angeles, CA, 90021",,,,,,,,,,,restaurant,
The Spirit Guild,"586 Mateo Street, Los Angeles, CA, 90013",,,,,,,,,,,restaurant,
Blu Jam Cafe,"541 South Spring Street, Los Angeles, CA, 90013, US",,,,,,,,,,,restaurant,
Orochon Ramen,"123 Astronaut Ellison S Onizuka Street, Los Angeles, CA, 90012",+1 213-617-1766,,https://www.orochonramenla.com/,Su-Th 11:30-22:30; Fr-Sa 11:30-23:00,japanese,,,,,,restaurant,
Marugame Monzo,"329 East 1st Street, Los Angeles, CA, 90012",,,,,japanese,,,,,,restaurant,
Silverlake Ramen,"615 South Spring Street, Los Angeles, CA, 90014, US",,,,,,,,,,,restaurant,
Guerrilla Tacos,"2000 East 7th Street, Los Angeles, CA, 90021",+1 213-375-3300,,http://www.guerrillatacos.com/,"Mo-Th,Su 12:00-21:00; Fr-Sa 12:00-22:00",,,,,yes,"Cash, Credit Cards, Debit Cards",restaurant,
Tony's Saloon,"2017 East 7th Street, Los Angeles, CA, 90021",,,,,,,,,,,restaurant,
BROKEN MOUTH,"231 East 9th Street, Los Angeles, CA, 90015",,,,,,,,,,,restaurant,
The Burrow,"821 South Flower Street, Los Angeles, CA, 90017",,,,,,,,,,,restaurant,
Little Sister,"523 West 7th Street, Los Angeles, CA, 90017",,,,,vietnamese,,,,,,restaurant,
Guisados,"541 South Spring Street, Los Angeles, CA, 90013, US",,,,,,,,,,,restaurant,
Prank,"1100 South Hope Street, Los Angeles, CA, 90015",,,,,,,,,,,restaurant,
Upstairs at Ace Hotel,"929 South Broadway, Los Angeles, CA, 90015",,,,,,,,,,,restaurant,
The Stocking Frame,"911 South Hill Street, Los Angeles, CA, 90015",,,,,,,,,,,restaurant,
The Varnish,"118 East 6th Street, Los Angeles, CA, 90014",,,,,,,,,,,restaurant,
Le Petit Paris,"418 South Spring Street, Los Angeles, CA, 90013, US",,,,,,,,,,,restaurant,
Bunker Hill Bar and Grill,"601 West 5th Street, Los Angeles, CA, 90071",,,,,,,,,,,restaurant,
Bar and Kitchen,"819 South Flower Street, Los Angeles, CA, 90017",,,,,,,,,,,restaurant,
Bonaventure Brewing Company,"404 Figueroa Street, Los Angeles, CA, 90071",,,,,,,,,,,restaurant,
The Wolves,"519 South Spring Street, Los Angeles, CA, 90013",,,,,,,,,,,restaurant,
Mikkeller Room,"330 West Olympic Boulevard, Los Angeles, CA, 90015",,,,,,,,,,,restaurant,
Modern Times Dankness Dojo,"832 Olive Street, Los Angeles, CA, 90014",,,,,,,,,,,restaurant,
Las Perlas,"107 East 6th Street, Los Angeles, CA, 90014",,,,,,,,,,,restaurant,
sixth+mill pizzeria and bar,"1335 East 6th Street, Los Angeles, CA, 90021, US",,,,,,,,,,,restaurant,
Sushi Gen,"422 East 2nd Street, Los Angeles, CA, 90012, US",+1 213-617-0552,,http://www.sushigen-dtla.com/,"Tu-Fr 11:00-14:00, 17:00-22:30;Sa 16:00-22:30",japanese;sushi,,,,yes,"Cash, Credit Cards, Debit Cards",restaurant,
Prime Pizza,"141 Central Avenue, Los Angeles, CA, 90012, US",,,,,pizza,,,,,,restaurant,
Little Bear,"1855 Industrial Street, Los Angeles, CA, 90021",,,,,,,,,,,restaurant,
Ramen Tatsunoya,"3440 Sunset Boulevard, Los Angeles, CA, 90026",+1-323-522-6639,,https://www.tatsunoya.net/,"Mo-Fr 12:00-15:00,18:00-22:00; Sa-Su 12:00-23:00",japanese;ramen,,,,,,restaurant,
Church & State,"1850 Industrial Street, Los Angeles, CA, 90021",+1 (213) 405-1434,,,,french,,,,,,restaurant,
Yangban Society,"712 South Santa Fe Avenue, Los Angeles, CA, 90021",,,,,korean,,,,,,restaurant,
Wax Paper,Wax Paper,,,,,sandwich,,,,,,restaurant,
Takami Sushi & Robata,"811 Wilshire Boulevard, Los Angeles, CA, 90017",+1-213-236-9600,,https://www.takamisushi.com/,,japanese;sushi,,,,,,restaurant,
Tsubaki,1356 Allison Avenue,+1 213-900-4900,mailto:hello@tsubakila.com,https://tsubakila.com/,Mo-Sa 17:00-22:00; Su 05:00-21:00,japanese,,,,,,restaurant,
Homeboy Diner,"200 North Spring Street, Los Angeles, CA, 90012",(213) 542-6190,info@homeboyindustries.org,https://homeboyindustries.org/,Mo-Fr 07:00-15:30,american,,yes,,yes,Contactless,restaurant,
Majordomo,"1725 Naud Street, Los Angeles, CA, 90012",+1-323-545-4880,,https://www.majordomo.la,,american;new_american,,,,,,restaurant,
First Draft Taproom & Kitchen,"1230 South Olive Street, Los Angeles, CA, 90015",+1-213-536-5267,,https://www.firstdraft.beer,,american,,,,,,restaurant,
Joey,700 West 7th Street,,,https://joeyrestaurants.com/location/joey-dtla,,,,,,,,restaurant,
Shabuya,Shabuya,,,,,,,,,,,restaurant,
Market Place Deli & Restaurant,1102 Lawrence Street,,,,,deli,,,,,,restaurant,
(abeautifullife) Jamaican,(abeautifullife) Jamaican,,,,,,,,,,,restaurant,
Amar Desh Indian Restaurant,Amar Desh Indian Restaurant,,,,,indian,,,,,,restaurant,
9th St Ramen,9th St Ramen,,,,,,,,,,,restaurant,
Amante Pizza & Pasta,Amante Pizza & Pasta,,,,,,,,,,,restaurant,
Asian Box,Asian Box,,,,,,,,,,,restaurant,
Bao Hiroo,Bao Hiroo,,,,,,,,,,,restaurant,
Bar Avalon,Bar Avalon,,,,,,,,,,,restaurant,
Backyard Bowls,Backyard Bowls,,,,,,,,,,,restaurant,
Bacari W Adam?,Bacari W Adam?,,,,,,,,,,,restaurant,
Burro's Breakfast Burritos,Burro's Breakfast Burritos,,,,,,,,,,,restaurant,
Big Mama's & Papa's Pizzeria,Big Mama's & Papa's Pizzeria,,,,,,,,,,,restaurant,
Amazebowls,Amazebowls,,,,,,,,,,,restaurant,
BurgerMan,BurgerMan,,,,,,,,,,,restaurant,
Cena Vegan,Cena Vegan,,,,,,,,,,,restaurant,
Cosa Buona,Cosa Buona,,,,,,,,,,,restaurant,
Doubting Thomas,Doubting Thomas,,,,,,,,,,,restaurant,
DTLA Ramen,DTLA Ramen,,,,,ramen,,,,,,restaurant,
El Caserio,El Caserio,,,,,,,,,,,restaurant,
Funculo,Funculo,,,,,,,,,,,restaurant,
Flore Vegan,2943 Sunset Boulevard,+1 323-953-0611,,http://www.florevegan.com/,,,,,,,,restaurant,
Ganchic,Ganchic,,,,,,,,,,,restaurant,
Gra,Gra,,,,,,,,,,,restaurant,
Hachioji Ramen,US,,,,,,,,,,,restaurant,
Hatch Yakitori,Hatch Yakitori,,,,,yakitori;japanese,,,,,,restaurant,
Harbor House,Harbor House,,,,,,,,,,,restaurant,
Hill Street Bar & Restaurant,Hill Street Bar & Restaurant,,,,,,,,,,,restaurant,
Otomisan Japanese Restaurant,Otomisan Japanese Restaurant,,,,,,,,,,,restaurant,
Today Starts Here,"935 Mei Ling Way, Los Angeles, CA, 90012",,,,,chinese,,,,,,restaurant,
Âu Lạc,Âu Lạc,,,,,,,,,,,restaurant,
Patina,Patina,,,,,,,,,,,restaurant,
Upstage Burger,Upstage Burger,,,,,,,,,,,restaurant,
Kendall's Brasserie,Kendall's Brasserie,,,,,,,,,,,restaurant,
Grand Café,Grand Café,,,,,,,,,,,restaurant,
Noe Restaurant & Bar,Noe Restaurant & Bar,,,,,,,,,,,restaurant,
Noe,Noe,,,,,,,,,,,restaurant,
Planet,Planet,,,,,,,,,,,restaurant,
Los Amigos Taqueria y,Los Amigos Taqueria y,,,,,,,,,,,restaurant,
El Primo Taco Truck,El Primo Taco Truck,,,,,,,,,,,restaurant,
Gus's Drive-In,Gus's Drive-In,,,,,,,,,,,restaurant,
T.G. Express,T.G. Express,,,,,,,,,,,restaurant,
El Burrito Panzon,El Burrito Panzon,,,,,,,,,,,restaurant,
RTR Express,RTR Express,,,,,,,,,,,restaurant,
HiFi Kitchen,HiFi Kitchen,,,,,,,,,,,restaurant,
Pupuseria Menchita,Pupuseria Menchita,,,,,,,,,,,restaurant,
All Day Baby,"3200 West Sunset Boulevard, 90026",+1 323-741-0082,mailto:hey@alldaybabyla.com,https://www.alldaybabyla.com/,Mo-Fr 09:00-16:00; Sa-Su 08:00-16:00,american;burger;breakfast;bakery,,,,,,restaurant,
Rodeo Mexican Grill,Rodeo Mexican Grill,,,,,,,,,,,restaurant,
LA Prime,LA Prime,,,,,,,,,,,restaurant,
Lakeview Bistro,Lakeview Bistro,,,,,,,,,,,restaurant,
Smeraldi’s Restaurant,Smeraldi’s Restaurant,,,,,,,,,,,restaurant,
Redwood Bar and Grill,"316 West 2nd Street, Los Angeles, CA, 90012",+1-213-680-2600,info@theredwoodbar.com,http://theredwoodbar.com/,Mo-Su 11:00-02:00,,,,,,,restaurant,
Be U - Vietnamese Street Food & Comfort Food,"557 Hoover Street, Los Angeles, CA, 90004",,,,,vietnamese,,,,,,restaurant,
Noypiz Bar and Grill,"333 South Alameda Street, Los Angeles, CA, 90013",,,,,filipino,,,,,,restaurant,
Smile Hot Dog,"333 South Alameda Street, Los Angeles, CA, 90013",,,,,,,,,,,restaurant,
Uji Time,"333 South Alameda Street, Los Angeles, CA, 90013",,,,,,,,,,,restaurant,
Utsuwa No Yakata,"333 South Alameda Street, Los Angeles, CA, 90013",,,,,,,,,,,restaurant,
Pho Shop,"333 South Alameda Street, Los Angeles, CA, 90013",,,,,,,,,,,restaurant,
Manna Korean BBQ,"333 South Alameda Street, Los Angeles, CA, 90013",,,,,korean,,,,,,restaurant,
Sushi Go 55,"333 South Alameda Street, Los Angeles, CA, 90013",,,,,sushi,,,,,,restaurant,
Izakaya Bizan,"333 South Alameda Street, Los Angeles, CA, 90013",,,https://www.izakayabizan.com/,,japanese,,,,,,restaurant,
Hana lchimonme,"333 South Alameda Street, Los Angeles, CA, 90013",,,https://www.hanaichimonmeusa.com/,,,,,,,,restaurant,
Tsurumaru Udon,"333 South Alameda Street, Los Angeles, CA, 90013",,,https://tsurumaruudon.com/,,japanese,,,,,,restaurant,
Oh My Poki,"333 South Alameda Street, Los Angeles, CA, 90013",,,,,hawaiian,,,,,,restaurant,
The Mermaid,The Mermaid,,,,,,,,,,,restaurant,
Men Oh Tokushima Ramen,Men Oh Tokushima Ramen,,,,,japanese,,,,,,restaurant,
DISTRICT,700 West 7th Street,,,https://www.districtdtla.com/,,,,,,,,restaurant,
Spitz - Little Tokyo,"371 East 2nd Street, Los Angeles, CA, 90012",213-613-0101,,https://spitz-restaurant.com/,Su-Th 11:00-23:00; Fr-Sa 11:00-01:00,mediterranean,,,,,,restaurant,
Chinchikurin,Chinchikurin,,,,"We,Th,Su,Mo 11:30-21:00; Fr,Sa 11:30-22:00",japanese;okonomiyaki,,,,,,restaurant,
Won Kok Restaurant,210 Alpine Street,+1 213-613-0700,,,,,,,,,"Cash, Credit Cards, Debit Cards",restaurant,
Chinese Street Food,Chinese Street Food,,,,,chinese,,,,,,restaurant,
My Thai Kitchen,"3407 W 6th St, Los Angeles, CA, 90020",+1-213-738-8849,,https://www.mythailosangeles.com,Tu-Su 11:00-21:30,thai,,,,,,restaurant,
Proper Pizza and Pasta,Proper Pizza and Pasta,,,,,pizza;italian,,,,,,restaurant,
El Verado Bakery,El Verado Bakery,,,,,bakery,,,,,,restaurant,
Boba Time,Boba Time,,,,,,,,,,,restaurant,
Pearl River Deli,"935 Mei Ling Way, Los Angeles, CA, 90012",+12133311696,,https://pearlriverdeli.com/,We-Sa 17:00-21:00,chinese,,,,,,restaurant,
San Salvador Restaurant,"1828 South Vermont Avenue, Los Angeles, CA, 90006",,,,,,,,,,,restaurant,
Park's BBQ,"955 South Vermont Avenue, Los Angeles, CA, 90006",+12133801717,,https://www.parksbbq.com/,,korean,,,,,,restaurant,
Quarter Sheets Pizza,"1305 Portia Street, 90026",+1 424-543-4970,,,"Th 17:00-21:00; Fr, Sa 12:00-15:00, 17:00-20:00; Su 12:00-18:00",pizza,,,,,,restaurant,
L & E Oyster Bar,"1637 Silver Lake Boulevard, Los Angeles, CA, 90026",+13236602255,,https://leoysterbar.com,Mo-Su 17:00-22:00,seafood,,,,,,restaurant,
Pine and Crane DTLA,1120 South Grand Avenue,(213) 536-5292,,https://www.pineandcrane.com/dtla,,taiwanese,yes,,,,,restaurant,
California Kabob Kitchen,California Kabob Kitchen,,,,,kebab,no,,,,,restaurant,
Ondal seafood,Ondal seafood,+1 213 382 8844,,https://www.ondalseafood.com/,,korean;seafood,,,,,,restaurant,
Monty's Good Burger,"1533 Sunset Boulevard, Los Angeles, CA, 90026",+1 213-915-0257,,https://montysgoodburger.com/locations/echo-park-los-angeles,Su-We 11:00-23:00; Th-Sa 11:00-00:00,burger,,,,,,restaurant,
Azay,"226 East 1st Street, Los Angeles, CA, 90012",2136283431,,https://www.azaylittletokyo.com/,"Tu- Fr 11:00-13:30; Sa-Su 9:00-13:30; Th-Sa, 17:30-21:30",japanese;french,,,,,,restaurant,
Roll Spot,Roll Spot,,,,,sushi,,,,,,restaurant,
Bak's Kitchen,Bak's Kitchen,,,http://bakskitchen.com,,asian,,,,,,restaurant,
Oomasa,Oomasa,,,,"We,Th,Su,Mo 11:30-21:00; Fr,Sa 11:30-22:00",japanese,,,,,,restaurant,
TOT Little Tokyo,TOT Little Tokyo,,,,,japanese,,,,,,restaurant,
Kouraku,Kouraku,,,,"Su-Th 11:30-24:00, Fr,Sa 11:30-02:00",japanese,,,,,,restaurant,
Korea BBQ House,Korea BBQ House,,,,,korean,,,,,,restaurant,
Rice and Nori,Rice and Nori,,,,,japanese,,,,,,restaurant,
Kushi Shabu,Kushi Shabu,,,,,japanese,,,,,,restaurant,
Mastro's,Mastro's,,,,,,,,,,,restaurant,
Rockbird,"2213 Sunset Boulevard, 90026",3235226322,,https://www.rockbirdla.com/,We-Su 11:00-20:45,chicken,,,,,,restaurant,
Amboy Quality Meats & Delicious Burgers,"727 North Broadway, Los Angeles, CA, 90012",2139358188,orders@amboyqualitymeatsanddeliciousburgers.com,https://amboyqualitymeatsanddeliciousburgers.com/,Tu-Su 09:00-15:00,burger,,,,,,restaurant,
Daybird,"240 North Virgil Avenue, 90004",,,https://www.daybirdla.com,We-Su 12:00-18:30,chicken;sandwich,,,,,,restaurant,
Inka Wasi,Inka Wasi,,,,,peruvian,,,,,,restaurant,
HH Brazilian Steakhouse,HH Brazilian Steakhouse,,,,,steak_house;brazilian,,,,,,restaurant,
Gyu-Kaku,Gyu-Kaku,,,,"Su-Th 11:30-22:30, Fr,Sa 11:30-02:00",japanese;barbecue,,,,,,restaurant,
Pizza Italia,Pizza Italia,,,,,pizza,,,,,,restaurant,
Corleone Pizza,Corleone Pizza,,,,,pizza,,,,,,restaurant,
Mikaza,Mikaza,,,,,sushi,,,,,,restaurant,
Mrs. Fish,Mrs. Fish,,,,"Tu-Th 17:00-23:00, Fr 17:00-24:00, Sa 16:00-24:00",sushi,,,,,,restaurant,
Authentica Comida Mexicana,"433 South Los Angeles Street, 90013",,,,Mo-Su 08:00-16:00,mexican,,,,,,restaurant,
Botanica Restaurant & Market,"1620 Silver Lake Boulevard, Los Angeles, CA, 90026",+1-323-522-6106,hello@botanicarestaurant.com,https://botanicarestaurant.com,,,yes,,,,,restaurant,grocery
Intercrew,Intercrew,,,,,,,,,,,restaurant,
Truly LA,Truly LA,,,,,,,,,,,restaurant,
Tenno,Tenno,,,,,sushi,,,,,,restaurant,
Sushi Gala,Sushi Gala,,,,,sushi,,,,,,restaurant,
Katsuya,Katsuya,,,,,japanese,,,,,,restaurant,
Sol Agave,800 West Olympic Boulevard,+1 213-536-5287,,https://www.solagave.com/los-angeles,Mo-Th 11:00-22:00; Fr 11:00-23:00; Sa 10:00-23:00; Su 10:00-22:00,mexican,,,,yes,"Cash, Credit Cards, Debit Cards",restaurant,
Fleming's,Fleming's,,,,,steak_house,,,,,,restaurant,
Fixins Soul Kitchen,Fixins Soul Kitchen,,,,,american;southern,,,,,,restaurant,
Savoca,Savoca,,,,,,,,,,,restaurant,
Sakana Sushi,"898 South Olive Street, 90015",,,,,sushi,,,,,,restaurant,
The Boil Daddy,"1225 East Washington Boulevard, Los Angeles",,,,,seafood,,,,,,restaurant,
Golden Tree,Golden Tree,,,,"Mo-Fr 11:00-15:00,17:00-24:00, Sa,Su 11:00-24:00",chinese,,,,yes,"Credit Cards, Debit Cards",restaurant,
Angel's Tacos,Angel's Tacos,,,,"Su, Tu-Th 16:30-00:00; Fr-Sa 16:30-01:00",mexican,,,,,,restaurant,
Pizzeria Bianca,Pizzeria Bianca,,,,,pizza,,,,,,restaurant,
Rappahannock Oyster Bar,Rappahannock Oyster Bar,,,,,seafood,,,,,,restaurant,
Simply Salad,Simply Salad,,,,,salad,,,,,,restaurant,
Mitsury Sushi & Grill,Mitsury Sushi & Grill,,,,,sushi,,,,,,restaurant,
April 90 Something,"2703 Sunset Boulevard, 90026",+1 213-483-2105,,https://april90something.com/,Mo 17:00-22:00; Tu-Su 12:00-22:00,thai,,,,,,restaurant,
Pijja Palace,2711 West Sunset Boulevard,,,https://www.pijjapalace.com/,"Mo-Tu off; We-Th,Su 17:00-21:30; Fr-Sa 17:00-22:30",pizza;indian,,,,,,restaurant,
De Buena Planta,"2815 W Sunset Blvd, 90026",+1 323-426-9023,,https://www.debuenaplanta.us/,"Mo-Th,Su 16:00-24:00; Fr-Sa 16:00-02:00",mexican,,,,,,restaurant,
Same Same Thai,2835 W Sunset Blvd,+1 213-273-8424,mailto:hello@samesamethai.com,https://www.samesamethai.com/,17:00-22:00,thai,,,,,,restaurant,
Spoon and Pork,"3131 West Sunset Boulevard, 90026",+1 323-922-6061,,https://www.spoonandpork.com/,"Mo off; Tu-Su 12:00-15:00,17:00-21:00",filipino,,,,,,restaurant,
Fat Dragon,3500 West Sunset Boulevard,+1 323-667-9193,,https://fatdragonla.com/,Mo-Fr 17:00-22:00; Sa-Su 11:30-22:00,chinese,,,,,,restaurant,
Kato,"777 South Alameda Street, Los Angeles, CA, 90021",+1-213-797-5770,,https://www.katorestaurant.com/,,,,,,,,restaurant,
Hayato,"1320 East 7th Street, Los Angeles, CA, 90021",,,https://hayatorestaurant.com/,,japanese,,,,,,restaurant,
Al & Bea's Mexican Food,"2025 East 1st Street, Los Angeles, CA, 90033",+1 (323) 267-8810,,,Tu-Sa 10:00-19:00,mexican,,,,,,restaurant,
King Taco,"2400 East Cesar E Chavez Avenue, Los Angeles, CA, 90033",+1 (323) 264-3940,,https://kingtaco.com/,Su-Th 8:30-24:00; Fr-Sa 8:30-3:00,mexican,,,,,,restaurant,
Shekarchi Bar & Grill,"920 South Olive Street, 90015",(213) 892-8535,,https://shekarchirestaurant.com/,,mediterranean,,,,,,restaurant,
The Art Room,"908 South Olive Street, 90015",(213) 669-6100,,http://artroomdtla.com,,,,,,,,restaurant,
Tamon Restaurant,"328 East 1st Street, Los Angeles, CA, 90012",2136177839,,https://group.bishamon-ten.com/tamon/,,japanese;sushi,,,,,,restaurant,
East Garden Restaurant,750 North Hill Street,+1 213-262-0723,,http://www.east-garden-restaurant.com/,08:30-21:00,chinese,,,,,"Cash, Credit Cards, Debit Cards",restaurant,
Cabra,Cabra,,,,,peruvian,,,,,,restaurant,
Moonlark's Dinette,Moonlark's Dinette,,,,,,,,,,,restaurant,
Cara Cara,Cara Cara,,,,,,,,,,,restaurant,
Caldo Verde,Caldo Verde,,,,,,,,,,,restaurant,
Kombu Sushi,300 Santa Fe Avenue,+1 323-663-1048,,https://kombula.com,12:00-21:00,japanese;sushi,no,yes,,,"Cash, Credit Cards, Debit Cards",restaurant,
Don Lino's,"3525 West 3rd Street, CA, 90020",,,,,mexican,,,,,,restaurant,
Biriyani Kabob House,"3525 West 3rd Street, Little Bangladesh, CA, 90020",,,,,kebab;bangladeshi;indian;pakistani,,,,,,restaurant,
Lokals Only Community Kitchen,"635 North Broadway, 90039",,,https://marianainla.com/2021/09/27/meet-jamie-sameshima-co-owner-of-lokels-only-chinatown/,,curry;regional;turkish,,,,,,restaurant,
Lokals Only,"635 North Broadway, 99039",,,https://marianainla.com/2021/09/27/meet-jamie-sameshima-co-owner-of-lokels-only-chinatown/,,american;curry;turkish,,,,,,restaurant,
Rikas,"3553 West 3rd Street, Little Bangladesh, CA, 90020",,,,,peruvian,,,,,,restaurant,
Emanuel,"3555 West 3rd Street, Little Bangladesh, CA, 90020",,,,,salvadoran,,,,,,restaurant,
Fratelli's,"3557 West 3rd Street, Little Bangladesh, CA, 90020",,,,,pizza,,,,,,restaurant,
Bagnet Tea House,Bagnet Tea House,,,,,filipino,,,,,,restaurant,
Manila Sunset,Manila Sunset,,,,,,,,,,,restaurant,
Las Flautas,Las Flautas,,,,,mexican,,,,,,restaurant,
El 7 Mares,El 7 Mares,,,,,seafood,,,,,,restaurant,
Don Chuy,Don Chuy,,,,,mexican,,,,,,restaurant,
Birrieria Nochistlan Zac,Birrieria Nochistlan Zac,,,,,mexican,,,,,,restaurant,
Kimbap Paradise,Kimbap Paradise,,,,"Mo-Fr 10:00-02:00, Sa 07:00-02:00, Su 07:00-23:00",korean,,,,,,restaurant,
Fathers Office,905 East 2nd Street,+1 310-736-2224,,https://fathersoffice.com/location/downtown-la/,Mo-Tu off; We-Th 17:00-22:00; Fr-Sa 17:00-23:00; Su 16:00-22:00,burger;american,,,,yes,"Cash, Credit Cards, Debit Cards",restaurant,
De La Nonna,De La Nonna,,,,,italian,,,,,,restaurant,
Los Burritos Home Made Mexican Food,"1312 Echo Park Avenue, 90026",+1 213-977-9102,,https://www.losburritostheoriginal.com/echo-park,10:00-21:00,mexican,,,,,,restaurant,
Lonely Oyster,1320 Echo Park Avenue,+1 213-221-7615,,https://thelonelyoyster.com/,"Mo,Su 12:00-24:00; Tu-Sa 12:00-02:00",,,,,,,restaurant,
Génesis Restaurante & Pupuseria,Génesis Restaurante & Pupuseria,,,,,,,,,,,restaurant,
Five Star Chinese Food,Five Star Chinese Food,(323) 276-1269,,,,chinese,,,,,,restaurant,
Little Rodeo Mexican Restaurant,"3500 N Broadway, Los Angeles, CA, 90031",(323) 221-2801,,https://www.rodeomexicangrill.com/order-online,,mexican,,,,,,restaurant,
Go! Pocha,"401 South Vermont Avenue, 90020",,,,Mo-Su 17:00-02:00,korean,,,,,,restaurant,
California Hot Chicken,"3335 South Figueroa Street, 90007",+12135365194,,http://californiahotchicken.square.site,Mo-Su 12:00-00:00,chicken,,,,,,restaurant,
Blaze Pizza,"3335 South Figueroa Street, 90007",+12138142485,,https://locations.blazepizza.com/ca/los-angeles/3335-s.-figueroa-st.?,Mo-Su 11:00-21:00,pizza,,,,,,restaurant,
The Village Mart & Deli,"2200 North Soto Street, Los Angeles, CA, 90032",(323) 227-1665,,https://thevillagemartdeli.com,Mo-Fr 07:00-18:00; Sa 8:00-15:00,sandwich,yes,,yes,,,restaurant,
Roberto's Family Restaurant,"3112 North Broadway, Los Angeles, CA, 90031",,,,,mexican,,,,,,restaurant,
El Huarachito,"3010 North Broadway, Los Angeles, CA, 90031",(323) 223-0476,,http://www.elhuarachito.com/,Mo-Su 07:00-15:00,mexican,,,,,,restaurant,
Maracas Cafe & Catering,"3300 North Broadway, Los Angeles, CA, 90031",(323) 225-0506,,https://maracascatering.com/,Mo-Su 07:00-15:00,mexican,,,,,,restaurant,
Kailey's Restaurant Salvadorean & Mexican Food,"3600 North Broadway, Los Angeles, CA, 90031",(323) 343-9320,,http://kaileysrestaurant.com/,Su-Mo 10:00-18:00; We-Sa 10:00-18:00,mexican;salvadorean,,,,,,restaurant,
kodō,710 South Santa Fe Avenue,+1 213-302-8010,,https://kodo.la,"We-Su 11:00-14:30, 17:30-23:00",japanese,,,,yes,"Cash, Credit Cards, Debit Cards",restaurant,
Brooklyn Ave Pizza Co,"2706 East Cesar E Chavez Avenue, Los Angeles, CA, 90033",+1-323-968-1106,,https://brooklynavepizzaco.com/,"Fr-Su 11:00-23:00,Tu-Th 11:00-22:00",pizza,,,,,,restaurant,
Santa Cecilia Restaurant,"1707 Pleasant Avenue, Los Angeles, CA, 90033",+1-323-980-0716,,,08:00-18:00,mexican,,,,,,restaurant,
X'tiosu Kitchen,"923 Forest Avenue, Los Angeles, CA, 90033",+1-323-526-8844,,,Su 11:30-18:00; Tu-Sa 11:30-19:00,mediterranean,,,,,,restaurant,
Rosemary Grill,90014,+18557452262,,https://rosemary-grill.com/,Mo-Su 10:30-22:00,mediterranean,,,,,,restaurant,
Patxi's Pizza,"3317 North Mission Road, Los Angeles, CA, 90031",+1-562-378-7354,,https://patxispizza.com/location/los-angeles,Fr-Sa 11:00-21:00; Su-Th 11:00-20:00,pizza,no,only,yes,,,restaurant,
Dan Sung Sa,3317 West 6th Street,,,,,korean,,,,,,restaurant,
Seongbukdong,3303 West 6th Street,,,,,korean,,,,,,restaurant,
Bruxie,"3201 South Hoover Street, Los Angeles, CA, 90089",,,https://www.bruxie.com/,Mo-Su 08:00-22:00,chicken,,,,,,restaurant,
Cali Chilli Kitchen and Bar,Cali Chilli Kitchen and Bar,,,,,,,,,,,restaurant,
Open Market,3339 Wilshire Boulevard,+1 212-232-3851,,https://openmarket.la,Mo-Fr 08:00-17:00; Sa-Su 08:00-15:00,sandwich;breakfast,,,,yes,"Cash, Credit Cards, Debit Cards",restaurant,
Levant,Levant,,,,Tu-Sa 10:00-22:00; Su 10:00-15:00,,,,,,,restaurant,
Bo Daddy's BBQ,"1415 South Hill Street, Los Angeles, CA, 90015",+12135365210,,https://www.bodaddys.com/,We-Su 11:30-18:30,barbecue,,yes,yes,,,restaurant,
Trattoria 25,"2501 South Santa Fe Avenue, Vernon, CA",+1-323-744–2563,,https://www.trattoria25.com/,,italian,,,,,,restaurant,
Flamebachi,Flamebachi,,,,,,,,,,,restaurant,
Combo A,Combo A,,,,,asian,,,,,,restaurant,
Northern Cafe,2904 South Figueroa Street,+12137419050,,https://www.northerncafe.us/,"Mo-Sa 11:00-23:00, Su 11:00-21:30",chinese,,,,,,restaurant,
Ono Hawaiian BBQ,3010 South Figueroa Street,+12137459888,,https://www.onohawaiianbbq.com/,Mo-Su 10:00-24:00,barbecue;hawaiian,,,,,,restaurant,
Viztango Cafe,3017 South Figueroa Street,+12137458050,,http://www.viztangocafefig.com/,"Mo-We 11:00-20:00, Th 11:00-20:30, Fr-Sa 11:00-21:00",italian,,,,,,restaurant,
Momota Ramen House,3019 South Figueroa Street,+12139735488,,,"Mo-Th 11:30-21:30, Fr-Su 11:30-22:00",ramen;japanese,,,,,,restaurant,
Happy Taco,"1309 Hoover Street, Los Angeles, CA, 90006, US",+1 213-352-9313,,https://happytaco1.com,08:00-23:00,mexican,,,08:00-21:30,,,restaurant,
ABC Seafood,205 Ord Street,+1 213-680-2887,,http://www.abc-seafood-restaurant.com/,,chinese,,,,,"Cash, Credit Cards, Debit Cards",restaurant,
Mama Lu's Dumpling House,Mama Lu's Dumpling House,,,,,chinese,,,,,,restaurant,
Phoenix Inn Chinese Cuisine,Phoenix Inn Chinese Cuisine,,,,,chinese,,,,,,restaurant,
Saigon Deli,Saigon Deli,,,,,vietnamese,,,,,,restaurant,
Zinc Market & Cafe,"580 Mateo Street, Los Angeles, CA, 90013",,,,,,,,,,,restaurant,
Detroit Vesey's,"2028 East 7th Street, Los Angeles, CA, 90021",+1 213-278-0098,,https://www.detroitveseys.com/,,coffee_shop;burger;sandwich;chicken;ice_cream,,,,,,restaurant,
Bike Shed Moto Co.,Bike Shed Moto Co.,,,,,,,,,,,restaurant,
Denny's,Denny's,,,,24/7,american,yes,yes,,yes,,restaurant,
Guisado's,"2100 Cesar E Chavez Avenue, Los Angeles, 90013",,,http://www.guisados.co/,,mexican,,,,,,restaurant,
Bahia Ensenada,"2605 East Cesar E Chavez Avenue, Los Angeles, CA, 90033, US",,,,09:00-17:00,mexican,,yes,no,,,restaurant,
Natural Selection,"646 South Main Street, Los Angeles, 90014",,,,,,,,,,,restaurant,
Rodeo Mexican Grill,"1721 West Sunset Boulevard, Los Angeles, CA, 90026",+1 213-483-8311,,https://rodeomexicangrill.com,"Mo-Th,Su 08:30-21:00; Fr-Sa 08:30-22:00",breakfast;burger;sandwich;mexican,,yes,,,,restaurant,
Leela Thai,Leela Thai,,,,,thai,,yes,,,,restaurant,
Mariscos 4 Vientos,Mariscos 4 Vientos,,,,,mexican;seafood,,,,,,restaurant,
Soowon Galbi,Soowon Galbi,,,,,,,,,,,restaurant,
Puertos Del Pacifico,"1240 Soto Street, los angeles, 90023",3232620203,,http://www.puertosdelpacifico.net,Mo-Th 10:00-22:00; Fr-Su 10:00-12:00,mexican,,,,yes,,restaurant,
Urth Cafe,"459 South Hewitt Street, Los Angeles, CA, 90013, US",,,,,,,,,,,restaurant,
Catch 21 Seafood,"441 Central Avenue, Los Angeles, 90013, US",(213) 485-1614,,,,seafood,,,,,,restaurant,
Sonagi Korean BBQ,Sonagi Korean BBQ,,,,,korean,,,,,,restaurant,
Yengmani,Yengmani,,,,,,,,,,,restaurant,
TGI Korean BBQ,"2585 West Olympic Boulevard, Los Angeles, CA, 90006",+12133757066,,,,korean,,,,,,restaurant,
The Dragon Restaurant,The Dragon Restaurant,,,,,,,,,,,restaurant,
Rain,Rain,,,,,,,,,,,restaurant,
Fisherman's Outlet,Fisherman's Outlet,,,,,,,,,,,restaurant,
Maccheroni Republic,"332 South Broadway, Los Angeles, CA, 90013",,,https://www.maccheronirepublic.com/,,pasta,,,,,,restaurant,
Chaya,Chaya,,,,,,,,,,,restaurant,
Kiku Teriyaki,Kiku Teriyaki,,,,,,,,,,,restaurant,
Q,"521 West 7th Street, Los Angeles, CA, 90014",213.225.6285,,,"Tu-Fr 12:00-13:30, Tu-Sa 18:00-21:00",sushi,,,,,,restaurant,
Hill Grill,"1061 Hill Street, Los Angeles, CA, 90015",2135365779,,http://hillgrilldtla.com/,"Mo-Tu 08:00-18:00,We-Fr 08:00-21:00,Sa-Su 10:00-18:00",american;burger;mexican;sandwich;breakfast;lunch;fast_food;salad,,yes,yes,,,restaurant,
DAMA,"612 East 11th Street, Los Angeles, CA, 90015",,,,,latin_american;bar,,,,,,restaurant,
Taco House 3,Taco House 3,,,,,,,,,,,restaurant,
Edmondson Faculty Center,Edmondson Faculty Center,,,https://www.theedmondson.com/,,,,,,,,restaurant,
King Taco (addition),"1118 Cypress Avenue, Los Angeles, CA, 90065",,,,,mexican,,,,,,restaurant,
IHOP,IHOP,,,,,breakfast;pancake,,,,,,restaurant,
Dino's Burgers,"2817 North Main Street, Los Angeles, CA, 90031",,,,,,,,,,,restaurant,
Maya's Restaurant,"200 South Ave 19, Los Angeles, CA, 90031",,,,,mexican,,,,,,restaurant,
Golden Dragon Restaurant,Golden Dragon Restaurant,,,,,chinese,,,,,,restaurant,
King Cole Pizza,King Cole Pizza,,,,,pizza,,,,,,restaurant,
Cemitas Poblanas Juquilita,"532 S Lorena St, Los Angeles, CA, 90063",323-261-0390,,https://www.cemitaspoblanasjuquilita.com/,Mo-Sa 10:00-22:00; Su 10:00-21:00,mexican,yes,yes,no,,,restaurant,
Traxx,Traxx,,,,Mo-Fr 11:00-20:00; Sa 11:30-16:00,,,,,,,restaurant,
Drago,Drago,,,,,,,,,,,restaurant,
Taix,1911 Sunset Boulevard,+1 213-484-1265,,http://taixfrench.com/,"Mo-Tu off; We-Th,Su 17:00-22:00; Fr-Sa 17:00-23:00",french,,,,,,restaurant,
Jemps Burgers,Jemps Burgers,,,,,,,,,,,restaurant,
Chicas Tacos,Chicas Tacos,,,,,,,,,,,restaurant,
Abernethy's,Abernethy's,,,,Mo-Sa 17:00-20:00,,,,,,,restaurant,
Pulgarcito,"2500 West Pico Boulevard, Los Angeles, CA, 90006",,,,,salvadoran,,,,,,restaurant,
천하만두 Dumpling House,"3252 West 3rd Street, CA, 90020",,,,,korean,,,,,,restaurant,
La Morenita Oaxaqueña,"3550 West 3rd Street, Little Bangladesh, CA, 90020",,,,,oaxacan,,,,,,restaurant,
Hawaiian B.B.Q. House,"3552 West 3rd Street, Little Bangladesh, CA, 90020",,,,,hawaiian,,,,,,restaurant,
